"RENTAL_ZONE_HAL_ID";"RENTAL_ZONE_HAL_SRC";"NAME";"CODE";"TYPE";"CITY";"COUNTRY";"LATITUDE";"LONGITUDE";"POI_AIRPORT_X";"POI_LONG_DISTANCE_TRAINS_X";"POI_SUBURBAN_TRAINS_X";"POI_UNDERGROUND_X";"ACTIVE_X";"COMPANY";"COMPANY_GROUP"
"38";"Station";"Paul-Lincke-Ufer";"PLU";"parkingarea";"Berlin";"Deutschland";"52,491966685810670";"13,437334746122360";"Nein";"Nein";"Nein";"Nein";"Nein";"Flinkster (Endkd.)";"DB Fuhrpark"
"79";"Station";"Ostbahnhof";"OST";"stationbased";"Berlin";"Deutschland";"52,509446616791216";"13,433682918548584";"Nein";"Ja";"Nein";"Nein";"Ja";"Flinkster (Endkd.)";"DB Fuhrpark"
"136";"Station";"Hbf Rostock";"Hbf Rostock";"stationbased";"Rostock";"Deutschland";"54,077917752559770";"12,132610380649567";"Nein";"Ja";"Ja";"Nein";"Ja";"Flinkster (Endkd.)";"DB Fuhrpark"
"138";"Station";"Hbf Schwerin";"Hbf Schwerin";"parkingarea";"Schwerin";"Deutschland";"53,633873801997470";"11,406887769699097";"Nein";"Ja";"Nein";"Nein";"Ja";"Flinkster (Endkd.)";"DB Fuhrpark"
"171";"Station";"Hbf Aschaffenburg";"Hbf Aschaffenburg";"stationbased";"Aschaffenburg";"Deutschland";"49,981667892009890";"9,144830703735351";"Nein";"Ja";"Nein";"Nein";"Ja";"Flinkster (Endkd.)";"DB Fuhrpark"
"511";"Station";"Katharinen";"KA";"stationbased";"Braunschweig";"Deutschland";"52,267117500000000";"10,525833300000000";"Nein";"Nein";"Nein";"Nein";"Nein";"Flinkster (Endkd.)";"DB Fuhrpark"
"522";"Station";"Plärrer";"PL";"stationbased";"Nürnberg";"Deutschland";"49,449186500000000";"11,059590100000000";"Nein";"Nein";"Nein";"Nein";"Nein";"Flinkster (Endkd.)";"DB Fuhrpark"
"560";"Station";"Hbf Duisburg";"Hbf Duisburg";"stationbased";"Duisburg";"Deutschland";"51,428315297838650";"6,776842474937439";"Nein";"Ja";"Nein";"Nein";"Ja";"Flinkster (Endkd.)";"DB Fuhrpark"
"570";"Station";"Hbf Oberhausen";"Hbf Oberhausen";"stationbased";"Oberhausen";"Deutschland";"51,474186700000000";"6,853648240000000";"Nein";"Ja";"Ja";"Nein";"Ja";"Flinkster (Endkd.)";"DB Fuhrpark"
"812";"Station";"ERMAFA";"ER";"stationbased";"Chemnitz";"Deutschland";"50,834236000000000";"12,907873000000000";"Nein";"Nein";"Nein";"Nein";"Nein";"Flinkster (Endkd.)";"DB Fuhrpark"
"1110";"Station";"Bhf. Zoologischer Garten";"ZOO";"stationbased";"Berlin";"Deutschland";"52,507704731952850";"13,333154395222663";"Nein";"Nein";"Ja";"Ja";"Ja";"Flinkster (Endkd.)";"DB Fuhrpark"
"1182";"Station";"Maxfeldstraße";"MF";"stationbased";"Nürnberg";"Deutschland";"49,461425300000000";"11,082182600000000";"Nein";"Nein";"Nein";"Nein";"Nein";"Flinkster (Endkd.)";"DB Fuhrpark"
"1183";"Station";"Hbf Freiburg";"Hbf Freiburg";"stationbased";"Freiburg";"Deutschland";"47,997146000000000";"7,839553000000000";"Nein";"Ja";"Nein";"Nein";"Ja";"Flinkster (Endkd.)";"DB Fuhrpark"
"2540";"Station";"Bahnhof";"HB";"stationbased";"Regensburg";"Deutschland";"49,010011000000000";"12,105281000000000";"Nein";"Ja";"Nein";"Nein";"Nein";"Flinkster (Endkd.)";"DB Fuhrpark"
"32917";"Station";"Hauptbahnhof 1 (Raschplatz)";"HBF1";"stationbased";"Hannover";"Deutschland";"52,378294000000000";"9,741105000000000";"Nein";"Ja";"Nein";"Nein";"Nein";"Flinkster (Endkd.)";"DB Fuhrpark"
"32931";"Station";"Hbf Stuttgart";"Hbf Stuttgart";"stationbased";"Stuttgart";"Deutschland";"48,786424413245550";"9,181201457977295";"Nein";"Ja";"Ja";"Ja";"Ja";"Flinkster (Endkd.)";"DB Fuhrpark"
"32937";"Station";"Hbf Osnabrück";"Hbf Osnabrück";"stationbased";"Osnabrück";"Deutschland";"52,274217091579480";"8,059410452842712";"Nein";"Ja";"Nein";"Nein";"Ja";"Flinkster (Endkd.)";"DB Fuhrpark"
"32949";"Station";"Augsburg - Bahnhof";"AB";"stationbased";"Augsburg";"Deutschland";"48,364752800000000";"10,888432300000000";"Nein";"Ja";"Nein";"Nein";"Nein";"Flinkster (Endkd.)";"DB Fuhrpark"
"32963";"Station";"Hbf Wuppertal";"Hbf Wuppertal";"stationbased";"Wuppertal";"Deutschland";"51,255674054453420";"7,151847481727600";"Nein";"Ja";"Nein";"Nein";"Ja";"Flinkster (Endkd.)";"DB Fuhrpark"
"32981";"Station";"Hauptbahnhof / Radstation";"HBF 3";"stationbased";"Köln";"Deutschland";"50,942434725473774";"6,960589885711670";"Nein";"Ja";"Ja";"Ja";"Nein";"Flinkster (Endkd.)";"DB Fuhrpark"
"32982";"Station";"Bf. Köln Messe/Deutz";"DE alt";"stationbased";"Köln";"Deutschland";"50,940401700000000";"6,974142030000000";"Nein";"Ja";"Ja";"Nein";"Nein";"Flinkster (Endkd.)";"DB Fuhrpark"
"32985";"Station";"Hbf Heidelberg";"Hbf Heidelberg";"stationbased";"Heidelberg";"Deutschland";"49,405030441362670";"8,674351179570294";"Nein";"Ja";"Nein";"Nein";"Ja";"Flinkster (Endkd.)";"DB Fuhrpark"
"32986";"Station";"Hbf 1 Mannheim";"Hbf 1 Mannheim";"stationbased";"Mannheim";"Deutschland";"49,478915887841870";"8,471431113043650";"Nein";"Ja";"Nein";"Nein";"Ja";"Flinkster (Endkd.)";"DB Fuhrpark"
"32987";"Station";"Hbf 1 Karlsruhe (Hauptausgang)";"Hbf 1 Karlsruhe (Hauptausgang)";"stationbased";"Karlsruhe";"Deutschland";"48,993714679432800";"8,398983478546142";"Nein";"Ja";"Ja";"Nein";"Ja";"Flinkster (Endkd.)";"DB Fuhrpark"
"33013";"Station";"Polizeipräsidium";"PP";"stationbased";"Düsseldorf";"Deutschland";"51,214313900000010";"6,767886139999999";"Nein";"Nein";"Nein";"Nein";"Nein";"Flinkster (Endkd.)";"DB Fuhrpark"
"33050";"Station";"Hbf Essen";"Hbf Essen";"stationbased";"Essen";"Deutschland";"51,450790200000000";"7,015352070000000";"Nein";"Ja";"Nein";"Nein";"Ja";"Flinkster (Endkd.)";"DB Fuhrpark"
"33052";"Station";"Hbf 3 Karlsruhe (Schwarzwaldstr.)";"Hbf 3 Karlsruhe (Schwarzwaldstr.";"stationbased";"Karlsruhe";"Deutschland";"48,991138985305234";"8,401727378368378";"Nein";"Ja";"Nein";"Nein";"Ja";"Flinkster (Endkd.)";"DB Fuhrpark"
"33053";"Station";"Lia-Wöhr-Platz/Frankenallee";"LIA";"stationbased";"Frankfurt am Main";"Deutschland";"50,107663517085730";"8,651824593544006";"Nein";"Nein";"Nein";"Nein";"Nein";"Flinkster (Endkd.)";"DB Fuhrpark"
"400186";"Station";"Winterstraße";"ALT";"stationbased";"Hamburg";"Deutschland";"53,550363843549190";"9,933496713638306";"Nein";"Ja";"Nein";"Nein";"Nein";"Flinkster (Endkd.)";"DB Fuhrpark"
"400201";"Station";"Martinsried";"MA";"stationbased";"München (DB-intern)";"Deutschland";"";"";"Nein";"Nein";"Nein";"Nein";"Nein";"Flinkster (Endkd.)";"DB Fuhrpark"
"400205";"Station";"Haar";"HA";"stationbased";"München (DB-intern)";"Deutschland";"48,100517000000000";"11,542808000000000";"Nein";"Nein";"Nein";"Nein";"Nein";"Flinkster (Endkd.)";"DB Fuhrpark"
"400213";"Station";"Friedrichstraße - Dorotheenstr.";"FR";"stationbased";"Berlin";"Deutschland";"52,518099512315960";"13,384385257959365";"Nein";"Nein";"Ja";"Ja";"Nein";"Flinkster (Endkd.)";"DB Fuhrpark"
"400258";"Station";"Hbf Münster";"Hbf Münster";"stationbased";"Münster";"Deutschland";"51,957559454713970";"7,637563347816467";"Nein";"Ja";"Nein";"Nein";"Ja";"Flinkster (Endkd.)";"DB Fuhrpark"
"400260";"Station";"Hauptbahnhof (Alt)";"HB";"stationbased";"Fulda";"Deutschland";"50,555161389070390";"9,682581424713135";"Nein";"Ja";"Nein";"Nein";"Nein";"Flinkster (Endkd.)";"DB Fuhrpark"
"400263";"Station";"Hbf 1 Siegburg (Wilhelmstr.)";"Hbf 1 Siegburg (Wilhelmstr.)";"stationbased";"Siegburg";"Deutschland";"50,794793731273934";"7,202584147453308";"Nein";"Ja";"Nein";"Nein";"Ja";"Flinkster (Endkd.)";"DB Fuhrpark"
"400268";"Station";"DB Richelstraße";"DB";"stationbased";"München";"Deutschland";"48,143990551060550";"11,532962322235107";"Nein";"Nein";"Ja";"Nein";"Ja";"Flinkster (Endkd.)";"DB Fuhrpark"
"400271";"Station";"Hauptbahnhof";"HB";"stationbased";"Gera";"Deutschland";"50,882411700000000";"12,077486300000000";"Nein";"Ja";"Nein";"Nein";"Nein";"Flinkster (Endkd.)";"DB Fuhrpark"
"400280";"Station";"Hbf Saarbrücken";"Hbf Saarbrücken";"stationbased";"Saarbrücken";"Deutschland";"49,240798476451250";"6,992834061384201";"Nein";"Ja";"Nein";"Nein";"Ja";"Flinkster (Endkd.)";"DB Fuhrpark"
"400289";"Station";"Hbf Aachen";"Hbf Aachen";"stationbased";"Aachen";"Deutschland";"50,767927282922700";"6,089221098973212";"Nein";"Ja";"Nein";"Nein";"Ja";"Flinkster (Endkd.)";"DB Fuhrpark"
"400304";"Station";"Hbf Bielefeld";"Hbf Bielefeld";"stationbased";"Bielefeld";"Deutschland";"52,030548127242035";"8,533126115798950";"Nein";"Ja";"Nein";"Nein";"Ja";"Flinkster (Endkd.)";"DB Fuhrpark"
"400312";"Station";"Hbf Ulm";"Hbf Ulm";"stationbased";"Ulm";"Deutschland";"48,401314647117715";"9,983450174331665";"Nein";"Ja";"Nein";"Nein";"Ja";"Flinkster (Endkd.)";"DB Fuhrpark"
"400313";"Station";"Hbf Heilbronn";"Hbf Heilbronn";"stationbased";"Heilbronn";"Deutschland";"49,142425331347810";"9,207342267036438";"Nein";"Ja";"Nein";"Nein";"Ja";"Flinkster (Endkd.)";"DB Fuhrpark"
"400314";"Station";"Bhf Vaihingen";"VAI";"stationbased";"Stuttgart";"Deutschland";"48,727192895656370";"9,113963842391968";"Nein";"Nein";"Ja";"Nein";"Ja";"Flinkster (Endkd.)";"DB Fuhrpark"
"400319";"Station";"Bahnhof Bad Cannstatt";"BAC";"stationbased";"Stuttgart";"Deutschland";"48,800687393158526";"9,217969179153442";"Nein";"Nein";"Ja";"Nein";"Nein";"Flinkster (Endkd.)";"DB Fuhrpark"
"400320";"Station";"Nordbahnhof";"NOR";"stationbased";"Stuttgart";"Deutschland";"48,803326801291070";"9,187788963317871";"Nein";"Nein";"Ja";"Nein";"Ja";"Flinkster (Endkd.)";"DB Fuhrpark"
"400321";"Station";"DB Services";"DBS";"stationbased";"München (DB-intern)";"Deutschland";"48,148246000000000";"11,521073000000000";"Nein";"Nein";"Nein";"Nein";"Nein";"Flinkster (Endkd.)";"DB Fuhrpark"
"400322";"Station";"Siemens";"SI";"stationbased";"München";"Deutschland";"48,085604000000000";"11,649832000000000";"Nein";"Nein";"Ja";"Nein";"Nein";"Flinkster (Endkd.)";"DB Fuhrpark"
"400335";"Station";"Stephensonstraße 1 [DB Zentrale]";"DB ZEN";"stationbased";"Frankfurt am Main";"Deutschland";"50,106570300512990";"8,640307188034058";"Nein";"Nein";"Ja";"Nein";"Ja";"Flinkster (Endkd.)";"DB Fuhrpark"
"400339";"Station";"Bahnhof DB";"DB";"stationbased";"Braunschweig";"Deutschland";"52,252694100000000";"10,539428300000000";"Nein";"Ja";"Nein";"Nein";"Nein";"Flinkster (Endkd.)";"DB Fuhrpark"
"400340";"Station";"Hbf Trier";"Hbf Trier";"stationbased";"Trier";"Deutschland";"49,755825837002620";"6,650912761688232";"Nein";"Ja";"Nein";"Nein";"Ja";"Flinkster (Endkd.)";"DB Fuhrpark"
"400342";"Station";"Caroline-Michaelis-Straße";"CMS";"stationbased";"Berlin";"Deutschland";"52,533559809882156";"13,382519781589508";"Nein";"Nein";"Ja";"Ja";"Ja";"Flinkster (Endkd.)";"DB Fuhrpark"
"400352";"Station";"LVR am Bf. Köln Messe / Deutz";"LVR";"stationbased";"Köln";"Deutschland";"50,939473642129045";"6,974236965179443";"Nein";"Nein";"Ja";"Nein";"Ja";"Flinkster (Endkd.)";"DB Fuhrpark"
"400360";"Station";"Parkhaus Alte Wallgasse";"AWG";"stationbased";"Köln";"Deutschland";"50,939816600000000";"6,942611320000000";"Nein";"Nein";"Nein";"Nein";"Nein";"Flinkster (Endkd.)";"DB Fuhrpark"
"400370";"Station";"Bilfinger (MA)";"BBMA";"stationbased";"Mannheim (BB)";"Deutschland";"";"";"Nein";"Nein";"Nein";"Nein";"Nein";"Flinkster (Endkd.)";"DB Fuhrpark"
"400371";"Station";"Bilfinger (WI)";"BBWI";"stationbased";"Wiesbaden (BB)";"Deutschland";"";"";"Nein";"Nein";"Nein";"Nein";"Nein";"Flinkster (Endkd.)";"DB Fuhrpark"
"400389";"Station";"Knürr";"KN";"stationbased";"Arnstorf";"Deutschland";"";"";"Nein";"Nein";"Nein";"Nein";"Nein";"Flinkster (Endkd.)";"DB Fuhrpark"
"400408";"Station";"Stadtverwaltung";"SV";"stationbased";"Arnsberg";"Deutschland";"51,442042000000000";"7,972857000000000";"Nein";"Nein";"Nein";"Nein";"Nein";"Flinkster (Endkd.)";"DB Fuhrpark"
"400409";"Station";"DB AutoZug Terminal Westerland";"SY";"stationbased";"Westerland auf Sylt";"Deutschland";"54,905166965338920";"8,312916755676270";"Nein";"Ja";"Nein";"Nein";"Nein";"Flinkster (Endkd.)";"DB Fuhrpark"
"400418";"Station";"Bahnhof";"HB";"stationbased";"Ravensburg";"Deutschland";"47,784370000000000";"9,606039000000001";"Nein";"Ja";"Nein";"Nein";"Nein";"Flinkster (Endkd.)";"DB Fuhrpark"
"400428";"Station";"Bahnhof";"BAD";"stationbased";"Baden-Baden";"Deutschland";"48,791208000000000";"8,193174000000001";"Nein";"Ja";"Ja";"Nein";"Nein";"Flinkster (Endkd.)";"DB Fuhrpark"
"400429";"Station";"Potsdamer Platz";"PP";"stationbased";"Berlin";"Deutschland";"52,510124088498520";"13,374339044094085";"Nein";"Nein";"Ja";"Ja";"Ja";"Flinkster (Endkd.)";"DB Fuhrpark"
"400454";"Station";"Hbf Hamm";"Hbf Hamm";"stationbased";"Hamm";"Deutschland";"51,677795465019535";"7,809127201223419";"Nein";"Ja";"Nein";"Nein";"Ja";"Flinkster (Endkd.)";"DB Fuhrpark"
"400503";"Station";"Bahnhof";"HB";"stationbased";"Eisenach";"Deutschland";"50,976265000000000";"10,331623000000000";"Nein";"Ja";"Nein";"Nein";"Nein";"Flinkster (Endkd.)";"DB Fuhrpark"
"400517";"Station";"Kinzigstraße (tesa)";"OG";"stationbased";"Offenburg";"Deutschland";"48,482367000000000";"7,935362000000000";"Nein";"Nein";"Nein";"Nein";"Nein";"Flinkster (Endkd.)";"DB Fuhrpark"
"400518";"Station";"S- Bahnhof Neufahrn";"NF";"stationbased";"Neufahrn";"Deutschland";"48,320875529774710";"11,660474538803100";"Nein";"Nein";"Ja";"Nein";"Nein";"Flinkster (Endkd.)";"DB Fuhrpark"
"400542";"Station";"Bellevue";"BEL";"stationbased";"Berlin";"Deutschland";"52,520800642666664";"13,345962613821030";"Nein";"Nein";"Ja";"Nein";"Nein";"Flinkster (Endkd.)";"DB Fuhrpark"
"400546";"Station";"Rummelsburger Bucht";"RB";"stationbased";"Berlin";"Deutschland";"52,497227000000000";"13,466833000000000";"Nein";"Nein";"Ja";"Nein";"Nein";"Flinkster (Endkd.)";"DB Fuhrpark"
"400547";"Station";"Waldorfschule";"WD";"stationbased";"Berlin";"Deutschland";"52,504245245190496";"13,399527668952942";"Nein";"Nein";"Nein";"Nein";"Nein";"Flinkster (Endkd.)";"DB Fuhrpark"
"400549";"Station";"Wissenschaftszentrum Berlin";"WZB";"stationbased";"Berlin";"Deutschland";"52,506601121579790";"13,364262655377388";"Nein";"Nein";"Nein";"Nein";"Nein";"Flinkster (Endkd.)";"DB Fuhrpark"
"400551";"Station";"DB Mobility Center";"DB MC";"stationbased";"Frankfurt am Main";"Deutschland";"50,119908000000000";"8,694502999999999";"Nein";"Nein";"Nein";"Nein";"Nein";"Flinkster (Endkd.)";"DB Fuhrpark"
"400552";"Station";"KGE NEU";"KGE Neu";"stationbased";"Magdeburg";"Deutschland";"52,144700000000000";"11,653286000000000";"Nein";"Nein";"Nein";"Nein";"Nein";"Flinkster (Endkd.)";"DB Fuhrpark"
"400558";"Station";"Ostbahnhof-alt";"O";"stationbased";"Berlin";"Deutschland";"52,510518000000000";"13,433018000000000";"Nein";"Ja";"Ja";"Nein";"Nein";"Flinkster (Endkd.)";"DB Fuhrpark"
"400564";"Station";"Hauptbahnhof";"BH";"stationbased";"Ravensburg";"Deutschland";"47,783993331103396";"9,605381858791361";"Nein";"Ja";"Nein";"Nein";"Ja";"Flinkster (Endkd.)";"DB Fuhrpark"
"400575";"Station";"Hbf Offenburg";"Hbf Offenburg";"stationbased";"Offenburg";"Deutschland";"48,479700652322300";"7,947387148905023";"Nein";"Ja";"Nein";"Nein";"Ja";"Flinkster (Endkd.)";"DB Fuhrpark"
"400577";"Station";"Alt-Stralau";"AS";"stationbased";"Berlin";"Deutschland";"52,497067451943890";"13,466840386390686";"Nein";"Nein";"Ja";"Nein";"Nein";"Flinkster (Endkd.)";"DB Fuhrpark"
"400578";"Station";"Hauptbahnhof";"HBF";"stationbased";"Rosenheim";"Deutschland";"47,849598793430060";"12,121267318725586";"Nein";"Ja";"Nein";"Nein";"Ja";"Flinkster (Endkd.)";"DB Fuhrpark"
"400590";"Station";"Hbf Kaiserslautern";"Hbf Kaiserslautern";"stationbased";"Kaiserslautern";"Deutschland";"49,435967457348130";"7,767500281333923";"Nein";"Ja";"Nein";"Nein";"Ja";"Flinkster (Endkd.)";"DB Fuhrpark"
"400593";"Station";"Mediapark";"MDP";"stationbased";"Köln";"Deutschland";"50,946799200000000";"6,939567730000001";"Nein";"Nein";"Nein";"Nein";"Nein";"Flinkster (Endkd.)";"DB Fuhrpark"
"400605";"Station";"Holzmarktstraße (Mittelstreifen)";"HOL";"stationbased";"Berlin";"Deutschland";"52,514928124383840";"13,419869542121887";"Nein";"Nein";"Ja";"Ja";"Nein";"Flinkster (Endkd.)";"DB Fuhrpark"
"400608";"Station";"Berlin Flughafen Tegel";"nichts";"stationbased";"Berlin";"Deutschland";"52,563658000000000";"13,331412000000000";"Nein";"Nein";"Nein";"Ja";"Nein";"Flinkster (Endkd.)";"DB Fuhrpark"
"400610";"Station";"Flughafen Berlin Tegel";"TEG";"stationbased";"Flugh. Berlin";"Deutschland";"52,554280863358070";"13,290109634399414";"Ja";"Nein";"Nein";"Ja";"Nein";"Flinkster (Endkd.)";"DB Fuhrpark"
"400657";"Station";"Hauptbahnhof A Berlin";"Hbf A Berlin";"stationbased";"Berlin";"Deutschland";"52,524398000000000";"13,366157000000000";"Nein";"Ja";"Ja";"Ja";"Ja";"Flinkster (Endkd.)";"DB Fuhrpark"
"400659";"Station";"DB ProjektBau";"DBP";"stationbased";"Berlin";"Deutschland";"52,531802000000000";"13,384388000000000";"Nein";"Nein";"Nein";"Nein";"Nein";"Flinkster (Endkd.)";"DB Fuhrpark"
"400730";"Station";"Flughafen Shuttle";"MUC";"stationbased";"Flugh. München";"Deutschland";"48,342801433601714";"11,709827184677124";"Ja";"Nein";"Nein";"Nein";"Nein";"Flinkster (Endkd.)";"DB Fuhrpark"
"400732";"Station";"Flughafen ";"FRA";"stationbased";"Flugh. Frankfurt";"Deutschland";"50,049870000000000";"8,572389000000000";"Ja";"Ja";"Ja";"Nein";"Nein";"Flinkster (Endkd.)";"DB Fuhrpark"
"400734";"Station";"Flughafen";"STR";"stationbased";"Flugh. Stuttgart/Echterdingen";"Deutschland";"48,691100000000000";"9,192333000000000";"Ja";"Nein";"Ja";"Nein";"Nein";"Flinkster (Endkd.)";"DB Fuhrpark"
"400735";"Station";"Schönhauser Arcaden";"SHA";"stationbased";"Berlin";"Deutschland";"52,549244637120090";"13,416956663131713";"Nein";"Nein";"Ja";"Ja";"Ja";"Flinkster (Endkd.)";"DB Fuhrpark"
"400751";"Station";"Presselstraße";"PRE";"stationbased";"Stuttgart";"Deutschland";"48,801708546111854";"9,184897541999817";"Nein";"Nein";"Ja";"Nein";"Ja";"Flinkster (Endkd.)";"DB Fuhrpark"
"400755";"Station";"Bf Köln Messe/Deutz";"BFD";"stationbased";"Köln";"Deutschland";"50,941712738788460";"6,972300833976760";"Nein";"Ja";"Ja";"Nein";"Ja";"Flinkster (Endkd.)";"DB Fuhrpark"
"400759";"Station";"Bahnhof";"Bhf";"stationbased";"Rostock";"Deutschland";"54,077801000000000";"12,130208000000000";"Nein";"Ja";"Ja";"Nein";"Nein";"Flinkster (Endkd.)";"DB Fuhrpark"
"400761";"Station";"Südkreuz 2";"SK 2";"stationbased";"Berlin";"Deutschland";"52,475389806394070";"13,364664316177368";"Nein";"Ja";"Ja";"Nein";"Ja";"Flinkster (Endkd.)";"DB Fuhrpark"
"400771";"Station";"Ruschestraße inaktiv";"RUALT";"parkingarea";"Berlin";"Deutschland";"52,513755000000000";"13,484843000000000";"Nein";"Nein";"Nein";"Nein";"Nein";"Flinkster (Endkd.)";"DB Fuhrpark"
"400772";"Station";"Markgrafendamm";"MGD";"stationbased";"Berlin";"Deutschland";"52,502552000000000";"13,466346000000000";"Nein";"Nein";"Nein";"Nein";"Nein";"Flinkster (Endkd.)";"DB Fuhrpark"
"400773";"Station";"Ladestraße-Köpenick";"LK";"stationbased";"Berlin";"Deutschland";"52,458254000000000";"13,581598000000000";"Nein";"Nein";"Ja";"Nein";"Nein";"Flinkster (Endkd.)";"DB Fuhrpark"
"400782";"Station";"Kleistpark";"KL";"stationbased";"Berlin";"Deutschland";"52,491839301975204";"13,362045139074325";"Nein";"Nein";"Nein";"Ja";"Nein";"Flinkster (Endkd.)";"DB Fuhrpark"
"400786";"Station";"Mehringdamm";"MD";"stationbased";"Berlin";"Deutschland";"52,485531000000000";"13,384964000000000";"Nein";"Nein";"Nein";"Ja";"Nein";"Flinkster (Endkd.)";"DB Fuhrpark"
"400787";"Station";"Frankfurter Tor";"FT...";"stationbased";"Berlin";"Deutschland";"52,516213000000000";"13,453074000000000";"Nein";"Nein";"Nein";"Ja";"Nein";"Flinkster (Endkd.)";"DB Fuhrpark"
"400790";"Station";"Deutz-Leichlinger1";"DE-L1";"stationbased";"Köln";"Deutschland";"50,941603000000000";"6,974688000000000";"Nein";"Nein";"Nein";"Nein";"Nein";"Flinkster (Endkd.)";"DB Fuhrpark"
"400792";"Station";"Parkraumquartier Ostseestraße /Hosemannstraße";"PR OH";"parkingarea";"Berlin";"Deutschland";"52,547571203457466";"13,439098298549652";"Nein";"Nein";"Nein";"Nein";"Ja";"Flinkster (Endkd.)";"DB Fuhrpark"
"400816";"Station";"Kaiser-Friedrich-Straße";"KF";"stationbased";"Berlin";"Deutschland";"52,510039000000000";"13,301181000000000";"Nein";"Nein";"Nein";"Nein";"Nein";"Flinkster (Endkd.)";"DB Fuhrpark"
"400818";"Station";"Bar jeder Vernunft";"BJV";"stationbased";"Berlin";"Deutschland";"52,499238384505325";"13,329491168260574";"Nein";"Nein";"Nein";"Ja";"Ja";"Flinkster (Endkd.)";"DB Fuhrpark"
"400819";"Station";"Kottbusser Tor";"KOTT";"stationbased";"Berlin";"Deutschland";"52,499624552704404";"13,420202136039734";"Nein";"Nein";"Nein";"Ja";"Nein";"Flinkster (Endkd.)";"DB Fuhrpark"
"400820";"Station";"Spandau Arcaden";"SPA";"stationbased";"Berlin";"Deutschland";"52,533897545377656";"13,194193840026855";"Nein";"Ja";"Ja";"Ja";"Ja";"Flinkster (Endkd.)";"DB Fuhrpark"
"400822";"Station";"DB Services";"DBS";"stationbased";"Siegen";"Deutschland";"50,877890000000000";"8,020723000000000";"Nein";"Nein";"Nein";"Nein";"Nein";"Flinkster (Endkd.)";"DB Fuhrpark"
"400830";"Station";"Sachsen-Anhalt";"S-Anh";"stationbased";"Magdeburg";"Deutschland";",000000000000000";",000000000000000";"Nein";"Nein";"Nein";"Nein";"Nein";"Flinkster (Endkd.)";"DB Fuhrpark"
"400848";"Station";"DB Service";"DBS";"stationbased";"Essen";"Deutschland";",000000000000000";",000000000000000";"Nein";"Nein";"Nein";"Nein";"Nein";"Flinkster (Endkd.)";"DB Fuhrpark"
"400854";"Station";"Fehrbelliner Straße";"FB";"stationbased";"Berlin";"Deutschland";"52,531306541864980";"13,408502340316772";"Nein";"Nein";"Nein";"Ja";"Nein";"Flinkster (Endkd.)";"DB Fuhrpark"
"400857";"Station";"Parkraumquartier Jungfernheide";"PRJH";"parkingarea";"Berlin";"Deutschland";"52,531179272010390";"13,301691412925720";"Nein";"Nein";"Ja";"Ja";"Nein";"Flinkster (Endkd.)";"DB Fuhrpark"
"400859";"Station";"Zülpicher Straße (DB Mobility Center)";"ZUE";"stationbased";"Köln";"Deutschland";"50,922543000000000";"6,922047000000000";"Nein";"Nein";"Nein";"Nein";"Nein";"Flinkster (Endkd.)";"DB Fuhrpark"
"400860";"Station";"Parkraumquartier Velodrom";"PRVEL";"parkingarea";"Berlin";"Deutschland";"52,528796973332360";"13,449186086654663";"Nein";"Nein";"Ja";"Nein";"Nein";"Flinkster (Endkd.)";"DB Fuhrpark"
"400861";"Station";"Rathaus Charlottenburg";"RC";"stationbased";"Berlin";"Deutschland";"52,518475721995650";"13,308852910995483";"Nein";"Nein";"Nein";"Ja";"Ja";"Flinkster (Endkd.)";"DB Fuhrpark"
"400868";"Station";"Hbf Düsseldorf";"Hbf Düsseldorf";"stationbased";"Düsseldorf";"Deutschland";"51,220706000000000";"6,797534000000000";"Nein";"Nein";"Nein";"Nein";"Ja";"Flinkster (Endkd.)";"DB Fuhrpark"
"400878";"Station";"Innenhof";"DB";"stationbased";"Wuppertal";"Deutschland";"51,255078000000000";"7,148862000000000";"Nein";"Nein";"Nein";"Nein";"Nein";"Flinkster (Endkd.)";"DB Fuhrpark"
"400883";"Station";"Donnersberger Brücke";"DOB";"stationbased";"München";"Deutschland";",000000000000000";",000000000000000";"Nein";"Nein";"Nein";"Nein";"Nein";"Flinkster (Endkd.)";"DB Fuhrpark"
"400884";"Station";"Joachimstraße";"JS";"stationbased";"Hannover";"Deutschland";",000000000000000";",000000000000000";"Nein";"Nein";"Nein";"Nein";"Nein";"Flinkster (Endkd.)";"DB Fuhrpark"
"400885";"Station";"Museumstraße";"MS";"stationbased";"Hamburg";"Deutschland";",000000000000000";",000000000000000";"Nein";"Nein";"Nein";"Nein";"Nein";"Flinkster (Endkd.)";"DB Fuhrpark"
"400886";"Station";"Marheinekeplatz";"MHP";"stationbased";"Berlin";"Deutschland";"52,488764000000000";"13,396238000000000";"Nein";"Nein";"Nein";"Ja";"Nein";"Flinkster (Endkd.)";"DB Fuhrpark"
"400888";"Station";"Fontanepromenade";"FOP";"parkingarea";"Berlin";"Deutschland";"52,489733000000000";"13,407353000000000";"Nein";"Nein";"Nein";"Ja";"Nein";"Flinkster (Endkd.)";"DB Fuhrpark"
"400889";"Station";"Blücherplatz ";"BLP";"stationbased";"Berlin";"Deutschland";"52,496601000000000";"13,390637000000000";"Nein";"Nein";"Nein";"Ja";"Nein";"Flinkster (Endkd.)";"DB Fuhrpark"
"400892";"Station";"Hauptbahnhof";"HBF";"stationbased";"Cottbus";"Deutschland";"51,750288000000000";"14,323838000000000";"Nein";"Ja";"Ja";"Nein";"Nein";"Flinkster (Endkd.)";"DB Fuhrpark"
"400894";"Station";"Gleisdreieck";"GL";"stationbased";"Berlin";"Deutschland";"52,500858961913316";"13,374164700508117";"Nein";"Nein";"Nein";"Ja";"Nein";"Flinkster (Endkd.)";"DB Fuhrpark"
"400896";"Station";"Fichtenberg - IBM";"AF-IBM";"stationbased";"Herrenberg";"Deutschland";",000000000000000";",000000000000000";"Nein";"Nein";"Nein";"Nein";"Nein";"Flinkster (Endkd.)";"DB Fuhrpark"
"400915";"Station";"Keibelstraße";"KEIB";"stationbased";"Berlin";"Deutschland";"52,524658645973420";"13,415406346321106";"Nein";"Nein";"Ja";"Ja";"Nein";"Flinkster (Endkd.)";"DB Fuhrpark"
"400916";"Station";"Hauptbahnhof Ausgang Lindenhof";"HB2";"stationbased";"Mannheim (BB)";"Deutschland";",000000000000000";",000000000000000";"Nein";"Nein";"Nein";"Nein";"Nein";"Flinkster (Endkd.)";"DB Fuhrpark"
"400917";"Station";"Hbf 2 Mannheim Parkhaus 3 Keplerstraße";"Hbf 2 Mannheim Parkhaus 3 Kepler";"stationbased";"Mannheim";"Deutschland";"49,479306455208980";"8,474535942077637";"Nein";"Ja";"Ja";"Nein";"Ja";"Flinkster (Endkd.)";"DB Fuhrpark"
"400936";"Station";"Heidebrinker Straße";"HEIDE";"stationbased";"Berlin";"Deutschland";"52,550539628731244";"13,387178778648376";"Nein";"Ja";"Ja";"Ja";"Nein";"Flinkster (Endkd.)";"DB Fuhrpark"
"400938";"Station";"Güterhallen";"GH";"stationbased";"Fulda";"Deutschland";"50,551859000000000";"9,687539000000000";"Nein";"Ja";"Nein";"Nein";"Nein";"Flinkster (Endkd.)";"DB Fuhrpark"
"400950";"Station";"Hbf Cottbus - Wirtschaftshof";"Hbf Cottbus";"stationbased";"Cottbus";"Deutschland";"51,750006727934250";"14,323607683181763";"Nein";"Ja";"Nein";"Nein";"Ja";"Flinkster (Endkd.)";"DB Fuhrpark"
"400954";"Station";"Bayerischer Platz";"BP";"stationbased";"Berlin";"Deutschland";"52,489449153524330";"13,341654986143112";"Nein";"Nein";"Nein";"Ja";"Nein";"Flinkster (Endkd.)";"DB Fuhrpark"
"400980";"Station";"U-Bahnhof Frankfurter Tor";"FT";"stationbased";"Berlin";"Deutschland";"52,515843002706570";"13,452506661415100";"Nein";"Nein";"Nein";"Ja";"Nein";"Flinkster (Endkd.)";"DB Fuhrpark"
"400982";"Station";"Am Ostbahnhof / Koppenstraße";"OSK";"stationbased";"Berlin";"Deutschland";"52,510814609154340";"13,432051464915275";"Nein";"Ja";"Ja";"Nein";"Ja";"Flinkster (Endkd.)";"DB Fuhrpark"
"400983";"Station";"U-Bahnhof Strausberger Platz";"STRAUS";"stationbased";"Berlin";"Deutschland";"52,518361472108150";"13,430169895291328";"Nein";"Nein";"Nein";"Ja";"Nein";"Flinkster (Endkd.)";"DB Fuhrpark"
"400984";"Station";"Parkraumquartier Warschauer Straße";"PR WARSCHAU";"parkingarea";"Berlin";"Deutschland";"52,503081137691055";"13,452214300632476";"Nein";"Nein";"Ja";"Ja";"Ja";"Flinkster (Endkd.)";"DB Fuhrpark"
"400985";"Station";"U-Bahnhof Weberwiese";"WEB";"stationbased";"Berlin";"Deutschland";"52,516949645407940";"13,443843126296997";"Nein";"Nein";"Nein";"Ja";"Nein";"Flinkster (Endkd.)";"DB Fuhrpark"
"400986";"Station";"U-Bahnhof Platz der Luftbrücke";"PL";"stationbased";"Berlin";"Deutschland";"52,485798761562414";"13,386213183403015";"Nein";"Nein";"Nein";"Ja";"Nein";"Flinkster (Endkd.)";"DB Fuhrpark"
"400987";"Station";"U-Bahnhof Prinzenstraße";"PS";"stationbased";"Berlin";"Deutschland";"52,498962431367620";"13,406770974397660";"Nein";"Nein";"Nein";"Ja";"Nein";"Flinkster (Endkd.)";"DB Fuhrpark"
"400988";"Station";"U-Bahnhof Moritzplatz";"MP";"stationbased";"Berlin";"Deutschland";"52,504258306530340";"13,410870730876922";"Nein";"Nein";"Nein";"Ja";"Nein";"Flinkster (Endkd.)";"DB Fuhrpark"
"400989";"Station";"U-Bahnhof Schönleinstraße";"SLS";"stationbased";"Berlin";"Deutschland";"52,492842847964000";"13,421504348516464";"Nein";"Nein";"Nein";"Ja";"Nein";"Flinkster (Endkd.)";"DB Fuhrpark"
"400990";"Station";"U-Bahnhof Kottbusser Tor";"KT";"stationbased";"Berlin";"Deutschland";"52,499786203501564";"13,419941961765290";"Nein";"Nein";"Nein";"Ja";"Nein";"Flinkster (Endkd.)";"DB Fuhrpark"
"400991";"Station";"U-Bahnhof Hermannplatz";"HP";"stationbased";"Berlin";"Deutschland";"52,486633805239920";"13,422980234026908";"Nein";"Nein";"Nein";"Ja";"Nein";"Flinkster (Endkd.)";"DB Fuhrpark"
"401069";"Station";"Hbf Potsdam";"Hbf Potsdam";"stationbased";"Potsdam";"Deutschland";"52,390656000000000";"13,067186000000000";"Nein";"Ja";"Ja";"Nein";"Ja";"Flinkster (Endkd.)";"DB Fuhrpark"
"401076";"Station";"Parkraumquartier Ruschestraße";"PR RUSCHE";"parkingarea";"Berlin";"Deutschland";"52,514074438403476";"13,485044538974762";"Nein";"Nein";"Nein";"Ja";"Ja";"Flinkster (Endkd.)";"DB Fuhrpark"
"401077";"Station";"Carl Friederichs GmbH ";"CF";"stationbased";"Frankfurt am Main";"Deutschland";"50,101375000000000";"8,658056000000000";"Nein";"Nein";"Nein";"Nein";"Nein";"Flinkster (Endkd.)";"DB Fuhrpark"
"401090";"Station";"Schillerstraße";"SCH";"stationbased";"Berlin";"Deutschland";"52,511015000000000";"13,306472000000000";"Nein";"Nein";"Nein";"Ja";"Nein";"Flinkster (Endkd.)";"DB Fuhrpark"
"401092";"Station";"Rudower Chaussee ";"AH";"stationbased";"Berlin";"Deutschland";"52,428950000000000";"13,530512000000000";"Nein";"Nein";"Ja";"Nein";"Nein";"Flinkster (Endkd.)";"DB Fuhrpark"
"401093";"Station";"Französische Straße";"FRA";"stationbased";"Berlin";"Deutschland";"52,514771426096750";"13,386470675468444";"Nein";"Nein";"Nein";"Ja";"Nein";"Flinkster (Endkd.)";"DB Fuhrpark"
"401099";"Station";"Hbf Ingolstadt";"Hbf Ingolstadt";"stationbased";"Ingolstadt";"Deutschland";"48,742240000000000";"11,437540000000000";"Nein";"Ja";"Nein";"Nein";"Ja";"Flinkster (Endkd.)";"DB Fuhrpark"
"401104";"Station";"Donnersbergerbrücke";"DON";"stationbased";"München";"Deutschland";"48,144888989252756";"11,535210013389587";"Nein";"Nein";"Ja";"Nein";"Ja";"Flinkster (Endkd.)";"DB Fuhrpark"
"401105";"Station";"Hamburger Bahnhof";"HAM";"stationbased";"Berlin";"Deutschland";"52,527685733656256";"13,371694386005401";"Nein";"Nein";"Nein";"Nein";"Nein";"Flinkster (Endkd.)";"DB Fuhrpark"
"401125";"Station";"Mainzer Landstraße 330-360 [GWC]";"DB GWC";"stationbased";"Frankfurt am Main";"Deutschland";"50,101880625796085";"8,630501031875610";"Nein";"Nein";"Ja";"Nein";"Nein";"Flinkster (Endkd.)";"DB Fuhrpark"
"401192";"Station";"Autowolf";"AW";"stationbased";"Berlin";"Deutschland";"52,576076098602300";"13,577857017517090";"Nein";"Nein";"Nein";"Nein";"Ja";"Flinkster (Endkd.)";"DB Fuhrpark"
"401193";"Station";"Werkstatt Korbas";"KO";"stationbased";"Hamburg";"Deutschland";"53,593638266430820";"10,136475563049316";"Nein";"Nein";"Nein";"Nein";"Ja";"Flinkster (Endkd.)";"DB Fuhrpark"
"401197";"Station";"Hbf Minden";"Hbf Minden";"stationbased";"Minden";"Deutschland";"52,290724470312554";"8,935800790786743";"Nein";"Nein";"Nein";"Nein";"Ja";"Flinkster (Endkd.)";"DB Fuhrpark"
"401202";"Station";"Frankfurter Str. 19 [DB KT]";"DB KTE";"stationbased";"Eschborn";"Deutschland";"50,133612125467480";"8,569786548614502";"Nein";"Nein";"Ja";"Nein";"Ja";"Flinkster (Endkd.)";"DB Fuhrpark"
"401230";"Station";"Gleimstraße";"GLE";"stationbased";"Berlin";"Deutschland";"52,546713258534030";"13,396346569061280";"Nein";"Nein";"Nein";"Nein";"Nein";"Flinkster (Endkd.)";"DB Fuhrpark"
"401231";"Station";"Europa Center";"EUC";"stationbased";"Berlin";"Deutschland";"52,504353001128050";"13,340360820293427";"Nein";"Nein";"Nein";"Ja";"Ja";"Flinkster (Endkd.)";"DB Fuhrpark"
"401232";"Station";"Kudamm Karree";"KUD";"stationbased";"Berlin";"Deutschland";"52,500940601512060";"13,324876427650452";"Nein";"Nein";"Nein";"Ja";"Nein";"Flinkster (Endkd.)";"DB Fuhrpark"
"401233";"Station";"CAB";"CAB";"stationbased";"Köln";"Deutschland";"";"";"Nein";"Nein";"Nein";"Nein";"Nein";"Flinkster (Endkd.)";"DB Fuhrpark"
"401291";"Station";"Prinzregentenstraße 3";"PRS3";"stationbased";"Berlin";"Deutschland";"52,492328421229240";"13,332279324531555";"Nein";"Nein";"Nein";"Ja";"Nein";"Flinkster (Endkd.)";"DB Fuhrpark"
"401292";"Station";"Handwerkervereinshaus / Sophienstraße";"SOP";"stationbased";"Berlin";"Deutschland";"52,525611670742070";"13,401126265525818";"Nein";"Nein";"Nein";"Nein";"Ja";"Flinkster (Endkd.)";"DB Fuhrpark"
"401296";"Station";"Weserstraße / Ecke Thiemannstraße";"WES";"stationbased";"Berlin";"Deutschland";"52,478092744970570";"13,452164679765701";"Nein";"Nein";"Nein";"Nein";"Nein";"Flinkster (Endkd.)";"DB Fuhrpark"
"401297";"Station";"Bahnhof";"BHF";"stationbased";"Au (Sieg)";"Deutschland";"50,773541853552390";"7,657041549682617";"Nein";"Nein";"Nein";"Nein";"Nein";"Flinkster (Endkd.)";"DB Fuhrpark"
"401298";"Station";"Bahnhof";"Bhf";"stationbased";"Wissen";"Deutschland";"50,782992093649010";"7,738902568817139";"Nein";"Nein";"Nein";"Nein";"Nein";"Flinkster (Endkd.)";"DB Fuhrpark"
"401299";"Station";"S-Bahnhof Bornholmer Straße";"BOR";"stationbased";"Berlin";"Deutschland";"52,554088427510280";"13,399071693420410";"Nein";"Nein";"Ja";"Nein";"Nein";"Flinkster (Endkd.)";"DB Fuhrpark"
"401310";"Station";"Frechen-Königsdorf";"S-Bahn - P+R Parkplatz";"stationbased";"Frechen";"Deutschland";"50,936419404846110";"6,778467893600464";"Nein";"Nein";"Ja";"Nein";"Nein";"Flinkster (Endkd.)";"DB Fuhrpark"
"401682";"Station";"EKAWE";"EKW";"stationbased";"Essen";"Deutschland";"51,453913311627750";"7,004663944244385";"Nein";"Nein";"Nein";"Nein";"Nein";"Flinkster (Endkd.)";"DB Fuhrpark"
"401697";"Station";"Schlosserstraße 10";"SLO";"stationbased";"Stuttgart";"Deutschland";"48,770142133329585";"9,177204966545105";"Nein";"Nein";"Nein";"Nein";"Nein";"Flinkster (Endkd.)";"DB Fuhrpark"
"401713";"Station";"PitStop 1009";"PSS";"stationbased";"Berlin";"Deutschland";"";"";"Nein";"Nein";"Nein";"Nein";"Nein";"Flinkster (Endkd.)";"DB Fuhrpark"
"401714";"Station";"PitStop 1012";"PSM";"stationbased";"Berlin";"Deutschland";"";"";"Nein";"Nein";"Nein";"Nein";"Nein";"Flinkster (Endkd.)";"DB Fuhrpark"
"401715";"Station";"PitStop 1028";"PSO";"stationbased";"Berlin";"Deutschland";"";"";"Nein";"Nein";"Nein";"Nein";"Nein";"Flinkster (Endkd.)";"DB Fuhrpark"
"401716";"Station";"PitStop 5005";"PSW";"stationbased";"Köln";"Deutschland";"";"";"Nein";"Nein";"Nein";"Nein";"Nein";"Flinkster (Endkd.)";"DB Fuhrpark"
"401717";"Station";"PitStop 5004";"PSL";"stationbased";"Köln";"Deutschland";"";"";"Nein";"Nein";"Nein";"Nein";"Nein";"Flinkster (Endkd.)";"DB Fuhrpark"
"401718";"Station";"Kölner Straße 4";"DB KÖL";"stationbased";"Frankfurt am Main";"Deutschland";"50,107903488115420";"8,651226460933685";"Nein";"Nein";"Nein";"Nein";"Nein";"Flinkster (Endkd.)";"DB Fuhrpark"
"401719";"Station";"Olga-Garage";"OLG";"stationbased";"Stuttgart";"Deutschland";"48,775424024724984";"9,186608791351318";"Nein";"Nein";"Nein";"Nein";"Nein";"Flinkster (Endkd.)";"DB Fuhrpark"
"401720";"Station";"Brückenstraße";"BRUE";"stationbased";"Stuttgart";"Deutschland";"48,807883163444500";"9,210862666368484";"Nein";"Nein";"Nein";"Nein";"Nein";"Flinkster (Endkd.)";"DB Fuhrpark"
"401721";"Station";"Geißstraße";"GEI";"stationbased";"Stuttgart";"Deutschland";"48,773387698680565";"9,176813364028930";"Nein";"Nein";"Nein";"Nein";"Nein";"Flinkster (Endkd.)";"DB Fuhrpark"
"401722";"Station";"Nagelstraße";"NAG";"stationbased";"Stuttgart";"Deutschland";"48,771105571954884";"9,186316430568695";"Nein";"Nein";"Nein";"Nein";"Nein";"Flinkster (Endkd.)";"DB Fuhrpark"
"401723";"Station";"Parkgarage Landesbibliotek";"LDB";"stationbased";"Stuttgart";"Deutschland";"48,777317392091960";"9,184381663792465";"Nein";"Nein";"Nein";"Nein";"Nein";"Flinkster (Endkd.)";"DB Fuhrpark"
"401724";"Station";"Rotebühlhof";"ROT";"stationbased";"Stuttgart";"Deutschland";"48,774105371624806";"9,169850349426270";"Nein";"Nein";"Nein";"Nein";"Nein";"Flinkster (Endkd.)";"DB Fuhrpark"
"401725";"Station";"Haus der Geschichte";"HDG";"stationbased";"Stuttgart";"Deutschland";"48,778488963929070";"9,185230135917664";"Nein";"Nein";"Nein";"Nein";"Nein";"Flinkster (Endkd.)";"DB Fuhrpark"
"401726";"Station";"Hofdienergarage";"HOF";"stationbased";"Stuttgart";"Deutschland";"48,779512336210300";"9,172714948654174";"Nein";"Nein";"Nein";"Nein";"Ja";"Flinkster (Endkd.)";"DB Fuhrpark"
"401727";"Station";"Parkgarage Staatsgalerie";"STG";"stationbased";"Stuttgart";"Deutschland";"48,780358944486410";"9,186469316482544";"Nein";"Nein";"Nein";"Nein";"Nein";"Flinkster (Endkd.)";"DB Fuhrpark"
"401728";"Station";"Parkgarage Kunstakademie";"OSS";"stationbased";"Stuttgart";"Deutschland";"48,801231539534310";"9,174989461898804";"Nein";"Nein";"Nein";"Nein";"Nein";"Flinkster (Endkd.)";"DB Fuhrpark"
"401729";"Station";"Plieninger Straße ";"PLI";"stationbased";"Stuttgart";"Deutschland";"48,723095016303950";"9,159549325704574";"Nein";"Nein";"Nein";"Nein";"Nein";"Flinkster (Endkd.)";"DB Fuhrpark"
"401730";"Station";"Parkhaus Züblin";"ZUE";"stationbased";"Stuttgart";"Deutschland";"48,772781380784710";"9,181289970874786";"Nein";"Nein";"Nein";"Nein";"Nein";"Flinkster (Endkd.)";"DB Fuhrpark"
"401731";"Station";"Tiefgarge Vaihinger Markt";"VAM";"stationbased";"Stuttgart";"Deutschland";"48,730582771443416";"9,110317379236221";"Nein";"Nein";"Nein";"Nein";"Nein";"Flinkster (Endkd.)";"DB Fuhrpark"
"401732";"Station";"Rosensteinstr. (Parkpl.Media Forum)";"ROS";"stationbased";"Stuttgart";"Deutschland";"48,792291243759840";"9,190621376037598";"Nein";"Nein";"Nein";"Nein";"Nein";"Flinkster (Endkd.)";"DB Fuhrpark"
"401733";"Station";"Burgstallstraße";"BUR";"stationbased";"Stuttgart";"Deutschland";"48,755064120665610";"9,141815900802612";"Nein";"Nein";"Nein";"Nein";"Nein";"Flinkster (Endkd.)";"DB Fuhrpark"
"401734";"Station";"Heilmannstraße (Wohnheim)";"HEI";"stationbased";"Stuttgart";"Deutschland";"48,787930062892040";"9,192057698965073";"Nein";"Nein";"Nein";"Nein";"Nein";"Flinkster (Endkd.)";"DB Fuhrpark"
"401735";"Station";"Hohenheimer Straße ";"HOH";"stationbased";"Stuttgart";"Deutschland";"48,703616678614920";"9,144031405448914";"Nein";"Nein";"Nein";"Nein";"Nein";"Flinkster (Endkd.)";"DB Fuhrpark"
"401736";"Station";"Katzenbachstraße";"KAT";"stationbased";"Stuttgart";"Deutschland";"48,733125028314966";"9,103442877531052";"Nein";"Nein";"Nein";"Nein";"Nein";"Flinkster (Endkd.)";"DB Fuhrpark"
"401737";"Station";"Eisenbahnstraße";"EIS";"stationbased";"Stuttgart";"Deutschland";"48,802609546158620";"9,213318228721619";"Nein";"Nein";"Nein";"Nein";"Nein";"Flinkster (Endkd.)";"DB Fuhrpark"
"401738";"Station";"Wolframstraße";"WOL";"stationbased";"Stuttgart";"Deutschland";"48,791752301498214";"9,185020923614502";"Nein";"Nein";"Nein";"Nein";"Nein";"Flinkster (Endkd.)";"DB Fuhrpark"
"401739";"Station";"Achterstraße 62";"ACH62";"stationbased";"Köln";"Deutschland";"50,927843819248146";"6,958701610565186";"Nein";"Nein";"Nein";"Nein";"Ja";"Flinkster (Endkd.)";"DB Fuhrpark"
"401740";"Station";"Bachemer Straße";"BAC";"stationbased";"Köln";"Deutschland";"50,930697452002870";"6,921944618225098";"Nein";"Nein";"Nein";"Nein";"Ja";"Flinkster (Endkd.)";"DB Fuhrpark"
"401741";"Station";"Bahnhof West";"BFW";"stationbased";"Köln";"Deutschland";"50,943097225154055";"6,932415962219238";"Nein";"Nein";"Nein";"Nein";"Nein";"Flinkster (Endkd.)";"DB Fuhrpark"
"401743";"Station";"Moselstraße (Stellplatz 7)";"MOS";"stationbased";"Stuttgart";"Deutschland";"48,823391653189330";"9,216907024383545";"Nein";"Nein";"Nein";"Nein";"Nein";"Flinkster (Endkd.)";"DB Fuhrpark"
"401748";"Station";"Gaußstraße 10";"GAU";"stationbased";"Stuttgart";"Deutschland";"48,779765082973704";"9,149381071329116";"Nein";"Nein";"Nein";"Nein";"Nein";"Flinkster (Endkd.)";"DB Fuhrpark"
"401756";"Station";"Mitterwurzerstraße";"MIT";"stationbased";"Stuttgart";"Deutschland";"48,725696040611940";"9,110565483570099";"Nein";"Nein";"Nein";"Nein";"Nein";"Flinkster (Endkd.)";"DB Fuhrpark"
"401757";"Station";"Am Botanischen Garten";"ABG";"stationbased";"Köln";"Deutschland";"50,959737742005636";"6,972520351409912";"Nein";"Nein";"Nein";"Nein";"Nein";"Flinkster (Endkd.)";"DB Fuhrpark"
"401765";"Station";"HBF - 2 / Parkhaus Rhein-Triadem";"HBF - 2";"stationbased";"Köln";"Deutschland";"50,944391776363470";"6,961861252784729";"Nein";"Ja";"Nein";"Nein";"Nein";"Flinkster (Endkd.)";"DB Fuhrpark"
"401767";"Station";"Bayardsgasse";"BAY";"stationbased";"Köln";"Deutschland";"50,933807847525840";"6,947908401489258";"Nein";"Nein";"Nein";"Nein";"Nein";"Flinkster (Endkd.)";"DB Fuhrpark"
"401768";"Station";"Bernkasteler Straße";"BKA";"stationbased";"Köln";"Deutschland";"50,909094751475730";"6,940569877624512";"Nein";"Nein";"Nein";"Nein";"Ja";"Flinkster (Endkd.)";"DB Fuhrpark"
"401769";"Station";"Blumenthalstraße";"BLU";"stationbased";"Köln";"Deutschland";"50,955426108487970";"6,962177753448486";"Nein";"Nein";"Nein";"Nein";"Ja";"Flinkster (Endkd.)";"DB Fuhrpark"
"401770";"Station";"Parkhaus Brückenstraße";"BRS";"stationbased";"Köln";"Deutschland";"50,937702310353295";"6,955118179321289";"Nein";"Nein";"Nein";"Nein";"Nein";"Flinkster (Endkd.)";"DB Fuhrpark"
"401771";"Station";"Brügelmannstraße";"BRU";"stationbased";"Köln";"Deutschland";"50,943088774962460";"6,985121369361877";"Nein";"Nein";"Nein";"Nein";"Nein";"Flinkster (Endkd.)";"DB Fuhrpark"
"401772";"Station";"Aral-Parkhaus Cäcilienstraße";"ARA";"stationbased";"Köln";"Deutschland";"50,935552282659486";"6,951127052307129";"Nein";"Nein";"Nein";"Nein";"Nein";"Flinkster (Endkd.)";"DB Fuhrpark"
"401773";"Station";"Fritz-Reuter-Straße";"FRS";"stationbased";"Köln";"Deutschland";"50,913938307927324";"6,970460414886475";"Nein";"Nein";"Nein";"Nein";"Nein";"Flinkster (Endkd.)";"DB Fuhrpark"
"401774";"Station";"Fritz-Voigt-Straße";"FVS";"stationbased";"Köln";"Deutschland";"50,953804073828700";"6,929647922515869";"Nein";"Nein";"Nein";"Nein";"Nein";"Flinkster (Endkd.)";"DB Fuhrpark"
"401775";"Station";"Herbert-Lewin-Straße";"HLS";"stationbased";"Köln";"Deutschland";"50,933550909690780";"6,921794414520264";"Nein";"Nein";"Nein";"Nein";"Nein";"Flinkster (Endkd.)";"DB Fuhrpark"
"401776";"Station";"Parkhaus Heumarkt";"HEU";"stationbased";"Köln";"Deutschland";"50,936455126047070";"6,961497902848350";"Nein";"Nein";"Nein";"Nein";"Nein";"Flinkster (Endkd.)";"DB Fuhrpark"
"401777";"Station";"Holzmarkt";"HOL";"stationbased";"Köln";"Deutschland";"50,932320293010760";"6,962563991546631";"Nein";"Nein";"Nein";"Nein";"Nein";"Flinkster (Endkd.)";"DB Fuhrpark"
"401778";"Station";"Höninger Weg";"HOE";"stationbased";"Köln";"Deutschland";"50,919011325161050";"6,940913200378418";"Nein";"Nein";"Nein";"Nein";"Nein";"Flinkster (Endkd.)";"DB Fuhrpark"
"401779";"Station";"Hürth Hahnenstraße";"HUE";"stationbased";"Köln";"Deutschland";"50,892774480652974";"6,909155845642090";"Nein";"Nein";"Nein";"Nein";"Nein";"Flinkster (Endkd.)";"DB Fuhrpark"
"401780";"Station";"Jakobstraße";"JAK";"stationbased";"Köln";"Deutschland";"50,925639234273675";"6,956856250762940";"Nein";"Nein";"Nein";"Nein";"Nein";"Flinkster (Endkd.)";"DB Fuhrpark"
"401781";"Station";"Parkhaus Kaiser-Wilhelm-Ring";"KWR";"stationbased";"Köln";"Deutschland";"50,945017068866750";"6,942522525787354";"Nein";"Nein";"Nein";"Nein";"Nein";"Flinkster (Endkd.)";"DB Fuhrpark"
"401782";"Station";"Parkhaus Lanxess-Arena";"LAN";"stationbased";"Köln";"Deutschland";"50,939591108787510";"6,981536597013474";"Nein";"Nein";"Nein";"Nein";"Nein";"Flinkster (Endkd.)";"DB Fuhrpark"
"401783";"Station";"Escher Straße";"ESC";"stationbased";"Köln";"Deutschland";"50,957223797422910";"6,942629814147949";"Nein";"Nein";"Nein";"Nein";"Nein";"Flinkster (Endkd.)";"DB Fuhrpark"
"401784";"Station";"Parkhaus Lungengasse";"LUN";"stationbased";"Köln";"Deutschland";"50,934903198160754";"6,946642398834229";"Nein";"Nein";"Nein";"Nein";"Nein";"Flinkster (Endkd.)";"DB Fuhrpark"
"401785";"Station";"Maastrichter Straße";"MAS";"stationbased";"Köln";"Deutschland";"50,938459529140590";"6,937694549560547";"Nein";"Nein";"Nein";"Nein";"Ja";"Flinkster (Endkd.)";"DB Fuhrpark"
"401786";"Station";"Mevissenstraße";"MEV";"stationbased";"Köln";"Deutschland";"50,953114691954970";"6,967585086822510";"Nein";"Nein";"Nein";"Nein";"Nein";"Flinkster (Endkd.)";"DB Fuhrpark"
"401787";"Station";"Bahnhof Mülheim";"BFM";"stationbased";"Köln";"Deutschland";"50,957318410703590";"7,011723518371582";"Nein";"Nein";"Nein";"Nein";"Ja";"Flinkster (Endkd.)";"DB Fuhrpark"
"401788";"Station";"Parkhaus Neptunplatz";"NEP";"stationbased";"Köln";"Deutschland";"50,947518154776220";"6,919519901275635";"Nein";"Nein";"Nein";"Nein";"Ja";"Flinkster (Endkd.)";"DB Fuhrpark"
"401789";"Station";"Tankstelle Neusser Straße 467";"TNE";"stationbased";"Köln";"Deutschland";"50,973737654530140";"6,950590610504150";"Nein";"Nein";"Nein";"Nein";"Nein";"Flinkster (Endkd.)";"DB Fuhrpark"
"401790";"Station";"Riehler Straße (ARAL-Tankstelle)";"RIE";"stationbased";"Köln";"Deutschland";"50,952222535526780";"6,961340904235840";"Nein";"Nein";"Nein";"Nein";"Ja";"Flinkster (Endkd.)";"DB Fuhrpark"
"401791";"Station";"DEVK Riehler Straße";"DEV";"stationbased";"Köln";"Deutschland";"50,958534850008625";"6,976017951965332";"Nein";"Nein";"Nein";"Nein";"Nein";"Flinkster (Endkd.)";"DB Fuhrpark"
"401792";"Station";"Rosenstraße";"ROS";"stationbased";"Köln";"Deutschland";"50,926897077764416";"6,959517002105713";"Nein";"Nein";"Nein";"Nein";"Nein";"Flinkster (Endkd.)";"DB Fuhrpark"
"401793";"Station";"Sechtemer Straße";"SEC";"stationbased";"Köln";"Deutschland";"50,912815405364600";"6,961641311645508";"Nein";"Nein";"Nein";"Nein";"Nein";"Flinkster (Endkd.)";"DB Fuhrpark"
"401794";"Station";"Seyengasse";"SEY";"stationbased";"Köln";"Deutschland";"50,927640947695140";"6,961855888366699";"Nein";"Nein";"Nein";"Nein";"Ja";"Flinkster (Endkd.)";"DB Fuhrpark"
"401795";"Station";"Theresienstraße";"THE";"stationbased";"Köln";"Deutschland";"50,927857343986900";"6,914434432983398";"Nein";"Nein";"Nein";"Nein";"Ja";"Flinkster (Endkd.)";"DB Fuhrpark"
"401796";"Station";"Venloer Straße / Ehrenfeldgürtel";"VEN";"stationbased";"Köln";"Deutschland";"50,949617780088260";"6,915326267480850";"Nein";"Nein";"Nein";"Nein";"Nein";"Flinkster (Endkd.)";"DB Fuhrpark"
"401797";"Station";"Vorsterstraße";"VOR";"stationbased";"Köln";"Deutschland";"50,939257299880740";"7,002625465393066";"Nein";"Nein";"Nein";"Nein";"Nein";"Flinkster (Endkd.)";"DB Fuhrpark"
"401798";"Station";"Waisenhausgasse";"WAG";"stationbased";"Köln";"Deutschland";"50,929845437806440";"6,951234340667725";"Nein";"Nein";"Nein";"Nein";"Nein";"Flinkster (Endkd.)";"DB Fuhrpark"
"401799";"Station";"Parkhaus Wiener Platz";"WIE";"stationbased";"Köln";"Deutschland";"50,963417181783214";"7,004567384719849";"Nein";"Nein";"Nein";"Nein";"Nein";"Flinkster (Endkd.)";"DB Fuhrpark"
"401800";"Station";"Wilhelmstraße";"WIL";"stationbased";"Köln";"Deutschland";"50,963238115702230";"6,958379745483398";"Nein";"Nein";"Nein";"Nein";"Ja";"Flinkster (Endkd.)";"DB Fuhrpark"
"401801";"Station";"Zülpicher Wall 12";"ZUW12";"stationbased";"Köln";"Deutschland";"50,928367899998270";"6,934760212898254";"Nein";"Nein";"Nein";"Nein";"Ja";"Flinkster (Endkd.)";"DB Fuhrpark"
"401802";"Station";"Amsterdamer Straße";"AMS";"stationbased";"Köln";"Deutschland";"50,965589570012390";"6,968421936035156";"Nein";"Nein";"Nein";"Nein";"Nein";"Flinkster (Endkd.)";"DB Fuhrpark"
"401803";"Station";"Glasstraße";"GLA";"stationbased";"Köln";"Deutschland";"50,952046805726596";"6,924283504486084";"Nein";"Nein";"Nein";"Nein";"Nein";"Flinkster (Endkd.)";"DB Fuhrpark"
"401804";"Station";"Fuchsstraße";"FUC";"stationbased";"Köln";"Deutschland";"50,945936402571405";"6,927824020385742";"Nein";"Nein";"Nein";"Nein";"Ja";"Flinkster (Endkd.)";"DB Fuhrpark"
"401805";"Station";"Mauenheimer Straße";"MAU";"stationbased";"Köln";"Deutschland";"50,966886873165805";"6,950225830078125";"Nein";"Nein";"Nein";"Nein";"Ja";"Flinkster (Endkd.)";"DB Fuhrpark"
"401806";"Station";"Nordstraße";"NOR";"stationbased";"Köln";"Deutschland";"50,968143601046435";"6,955268383026123";"Nein";"Nein";"Nein";"Nein";"Nein";"Flinkster (Endkd.)";"DB Fuhrpark"
"401807";"Station";"Plankgasse";"PLA";"stationbased";"Köln";"Deutschland";"50,947599268823080";"6,953852176666260";"Nein";"Nein";"Nein";"Nein";"Nein";"Flinkster (Endkd.)";"DB Fuhrpark"
"401808";"Station";"Gladbacher Wall";"GLW";"stationbased";"Köln";"Deutschland";"50,953425590928700";"6,948552131652832";"Nein";"Nein";"Nein";"Nein";"Nein";"Flinkster (Endkd.)";"DB Fuhrpark"
"401809";"Station";"Schlosserstraße";"SCH";"stationbased";"Stuttgart";"Deutschland";"48,769677201288240";"9,176263511180878";"Nein";"Nein";"Nein";"Nein";"Ja";"Flinkster (Endkd.)";"DB Fuhrpark"
"401811";"Station";"Vogelsanger Straße / Ehrenfeldgürtel";"VOG";"stationbased";"Köln";"Deutschland";"50,948342807657180";"6,915121078491211";"Nein";"Nein";"Nein";"Nein";"Ja";"Flinkster (Endkd.)";"DB Fuhrpark"
"401812";"Station";"Graeffstraße";"GRA";"stationbased";"Köln";"Deutschland";"50,949600037173106";"6,932651996612549";"Nein";"Nein";"Nein";"Nein";"Nein";"Flinkster (Endkd.)";"DB Fuhrpark"
"401813";"Station";"Bahnhof Ehrenfeld";"BFE / HUT";"stationbased";"Köln";"Deutschland";"50,952209017873436";"6,919283866882324";"Nein";"Nein";"Nein";"Nein";"Ja";"Flinkster (Endkd.)";"DB Fuhrpark"
"401814";"Station";"Goltsteinstraße";"GOL";"stationbased";"Köln";"Deutschland";"50,911421886199260";"6,968486309051514";"Nein";"Nein";"Nein";"Nein";"Nein";"Flinkster (Endkd.)";"DB Fuhrpark"
"401815";"Station";"Deutzer Freiheit";"DFR";"stationbased";"Köln";"Deutschland";"50,937201998318040";"6,973550319671631";"Nein";"Nein";"Nein";"Nein";"Nein";"Flinkster (Endkd.)";"DB Fuhrpark"
"401821";"Station";"Hoppenlaustraße";"HOP";"stationbased";"Stuttgart";"Deutschland";"48,782515168288330";"9,167141318321228";"Nein";"Nein";"Nein";"Nein";"Nein";"Flinkster (Endkd.)";"DB Fuhrpark"
"401822";"Station";"Landhausstraße";"LHS";"stationbased";"Stuttgart";"Deutschland";"48,782621209692040";"9,221305847167969";"Nein";"Nein";"Nein";"Nein";"Nein";"Flinkster (Endkd.)";"DB Fuhrpark"
"401823";"Station";"Klagenfurter Straße";"KLA";"stationbased";"Stuttgart";"Deutschland";"48,811201799969990";"9,156916737556458";"Nein";"Nein";"Nein";"Nein";"Ja";"Flinkster (Endkd.)";"DB Fuhrpark"
"401824";"Station";"Katzenbach- / Büsnauer Straße";"KBÜ";"stationbased";"Stuttgart";"Deutschland";"48,733712365137010";"9,099694490432740";"Nein";"Nein";"Nein";"Nein";"Nein";"Flinkster (Endkd.)";"DB Fuhrpark"
"401825";"Station";"In der Lüsse (Abenteuerspielplatz)";"IDL";"stationbased";"Stuttgart";"Deutschland";"48,736457896864290";"9,114210605621338";"Nein";"Nein";"Nein";"Nein";"Nein";"Flinkster (Endkd.)";"DB Fuhrpark"
"401826";"Station";"S-Bahnhof Jannowitzbrücke";"JAN";"stationbased";"Berlin";"Deutschland";"52,513974867830505";"13,420631289482117";"Nein";"Nein";"Ja";"Nein";"Nein";"Flinkster (Endkd.)";"DB Fuhrpark"
"401829";"Station";"Friedrich-Ebert-Straße";"FES";"stationbased";"Stuttgart";"Deutschland";"48,800970067337290";"9,179195165634155";"Nein";"Nein";"Nein";"Nein";"Nein";"Flinkster (Endkd.)";"DB Fuhrpark"
"401880";"Station";"Hauptbahnhof";"HBF";"stationbased";"Tübingen";"Deutschland";"48,515060370238490";"9,055554717779160";"Nein";"Nein";"Nein";"Nein";"Nein";"Flinkster (Endkd.)";"DB Fuhrpark"
"401881";"Station";"Luxemburger Straße";"LUX";"stationbased";"Köln";"Deutschland";"50,908364115413150";"6,919262409210205";"Nein";"Nein";"Nein";"Nein";"Nein";"Flinkster (Endkd.)";"DB Fuhrpark"
"401882";"Station";"Widdersdorfer Straße";"WID";"stationbased";"Köln";"Deutschland";"50,945260423675530";"6,906859874725342";"Nein";"Nein";"Nein";"Nein";"Nein";"Flinkster (Endkd.)";"DB Fuhrpark"
"401883";"Station";"Weilburger Strasse 26-28";"DB WEI";"stationbased";"Frankfurt am Main";"Deutschland";"50,100872440603230";"8,642506599426270";"Nein";"Nein";"Nein";"Nein";"Ja";"Flinkster (Endkd.)";"DB Fuhrpark"
"401884";"Station";"Hauptmannsreute 136";"HAU 136";"stationbased";"Stuttgart";"Deutschland";"48,781002286529670";"9,151316285133361";"Nein";"Nein";"Nein";"Nein";"Nein";"Flinkster (Endkd.)";"DB Fuhrpark"
"401885";"Station";"Hauptmannsreute / Köllestraße";"HKÖL";"stationbased";"Stuttgart";"Deutschland";"48,778322818619460";"9,147834777832031";"Nein";"Nein";"Nein";"Nein";"Nein";"Flinkster (Endkd.)";"DB Fuhrpark"
"401886";"Station";"Scheffelstraße";"SCHEF";"stationbased";"Stuttgart";"Deutschland";"48,777700652574815";"9,146718978881836";"Nein";"Nein";"Nein";"Nein";"Nein";"Flinkster (Endkd.)";"DB Fuhrpark"
"401902";"Station";"Berrenrather Straße";"BER";"stationbased";"Köln";"Deutschland";"50,919985281186406";"6,927587985992432";"Nein";"Nein";"Nein";"Nein";"Nein";"Flinkster (Endkd.)";"DB Fuhrpark"
"401903";"Station";"Unicenter";"UNI";"stationbased";"Köln";"Deutschland";"50,923218127953930";"6,931772232055664";"Nein";"Nein";"Nein";"Nein";"Ja";"Flinkster (Endkd.)";"DB Fuhrpark"
"401904";"Station";"Bonner Wall / Bonner Straße";"BON";"stationbased";"Köln";"Deutschland";"50,916265200487920";"6,960461139678955";"Nein";"Nein";"Nein";"Nein";"Nein";"Flinkster (Endkd.)";"DB Fuhrpark"
"401905";"Station";"Rhöndorfer Straße";"RHO";"stationbased";"Köln";"Deutschland";"50,915981109375664";"6,935420036315918";"Nein";"Nein";"Nein";"Nein";"Ja";"Flinkster (Endkd.)";"DB Fuhrpark"
"401906";"Station";"Melchiorstraße";"MEL";"stationbased";"Köln";"Deutschland";"50,952384747060286";"6,955268383026123";"Nein";"Nein";"Nein";"Nein";"Nein";"Flinkster (Endkd.)";"DB Fuhrpark"
"401909";"Station";"Parkhaus Alexanderstraße 46";"ALEX";"stationbased";"Stuttgart";"Deutschland";"48,773058909126796";"9,186348617076874";"Nein";"Nein";"Nein";"Nein";"Nein";"Flinkster (Endkd.)";"DB Fuhrpark"
"401910";"Station";"Bhf Echterdingen";"ECH";"stationbased";"Stuttgart";"Deutschland";"48,691997940301455";"9,170944690704346";"Nein";"Nein";"Ja";"Nein";"Ja";"Flinkster (Endkd.)";"DB Fuhrpark"
"401911";"Station";"Bahnhof Leinfelden";"LEI";"stationbased";"Stuttgart";"Deutschland";"48,696668418294670";"9,142577648162842";"Nein";"Nein";"Ja";"Nein";"Ja";"Flinkster (Endkd.)";"DB Fuhrpark"
"401914";"Station";"Schwabengalerie";"SCHWAB";"stationbased";"Stuttgart";"Deutschland";"48,730506696362080";"9,107510447502136";"Nein";"Nein";"Nein";"Nein";"Nein";"Flinkster (Endkd.)";"DB Fuhrpark"
"401923";"Station";"Robert-Mayer-Straße";"ROM";"stationbased";"Stuttgart";"Deutschland";"48,793620020930780";"9,177274703979492";"Nein";"Nein";"Nein";"Nein";"Nein";"Flinkster (Endkd.)";"DB Fuhrpark"
"401924";"Station";"Robert-Mayer-Strasse";"RMS";"stationbased";"Stuttgart";"Deutschland";"48,796097248231690";"9,178664088249207";"Nein";"Nein";"Nein";"Nein";"Nein";"Flinkster (Endkd.)";"DB Fuhrpark"
"401927";"Station";"Sedanstraße";"SED";"stationbased";"Köln";"Deutschland";"50,951383588716050";"6,964705735445023";"Nein";"Nein";"Nein";"Nein";"Ja";"Flinkster (Endkd.)";"DB Fuhrpark"
"401931";"Station";"Schlossstrasse 87";"SCHLO";"stationbased";"Stuttgart";"Deutschland";"48,775720982038920";"9,160730838775635";"Nein";"Nein";"Nein";"Nein";"Nein";"Flinkster (Endkd.)";"DB Fuhrpark"
"401932";"Station";"Birkenkopf";"BIRKE";"stationbased";"Stuttgart";"Deutschland";"48,769130944834444";"9,141290187835693";"Nein";"Nein";"Nein";"Nein";"Nein";"Flinkster (Endkd.)";"DB Fuhrpark"
"401933";"Station";"Osiander";"OSIA";"stationbased";"Stuttgart";"Deutschland";"48,766712495355020";"9,150903224945068";"Nein";"Nein";"Nein";"Nein";"Nein";"Flinkster (Endkd.)";"DB Fuhrpark"
"401938";"Station";"Senefelder Strasse 5";"SENE";"stationbased";"Stuttgart";"Deutschland";"48,770347197044340";"9,164400100708008";"Nein";"Nein";"Nein";"Nein";"Nein";"Flinkster (Endkd.)";"DB Fuhrpark"
"401940";"Station";"Hbf 1 Köln ( Goldgasse )";"Hbf 1 Köln ( Goldgasse )";"stationbased";"Köln";"Deutschland";"50,943377770642730";"6,960764229297638";"Nein";"Ja";"Nein";"Nein";"Nein";"Flinkster (Endkd.)";"DB Fuhrpark"
"401943";"Station";"Möhringer Straße";"MOE";"stationbased";"Stuttgart";"Deutschland";"48,759905561332590";"9,154296219348907";"Nein";"Nein";"Nein";"Nein";"Ja";"Flinkster (Endkd.)";"DB Fuhrpark"
"401944";"Station";"Löffelstraße";"LOE";"stationbased";"Stuttgart";"Deutschland";"48,747544639907176";"9,164357185363770";"Nein";"Nein";"Nein";"Nein";"Ja";"Flinkster (Endkd.)";"DB Fuhrpark"
"401947";"Station";"Straussäcker 1";"Straus1";"stationbased";"Stuttgart";"Deutschland";"48,742493293843590";"9,103116989135742";"Nein";"Nein";"Nein";"Nein";"Nein";"Flinkster (Endkd.)";"DB Fuhrpark"
"401948";"Station";"Straussäcker (Wohnheim 2)";"STR";"stationbased";"Stuttgart";"Deutschland";"48,743554543127956";"9,102816581726074";"Nein";"Nein";"Nein";"Nein";"Nein";"Flinkster (Endkd.)";"DB Fuhrpark"
"401950";"Station";"Stellwerk 60";"STW";"stationbased";"Köln";"Deutschland";"50,962650233527320";"6,943024098873138";"Nein";"Nein";"Nein";"Nein";"Ja";"Flinkster (Endkd.)";"DB Fuhrpark"
"401951";"Station";"Vorgebirgstraße";"VGS";"stationbased";"Köln";"Deutschland";"50,917834434430790";"6,949582099914551";"Nein";"Nein";"Nein";"Nein";"Ja";"Flinkster (Endkd.)";"DB Fuhrpark"
"401952";"Station";"Innere Kanalstraße";"INK";"stationbased";"Köln";"Deutschland";"50,959453916363920";"6,961898803710938";"Nein";"Nein";"Nein";"Nein";"Nein";"Flinkster (Endkd.)";"DB Fuhrpark"
"401953";"Station";"Allme";"ALL";"stationbased";"Stuttgart";"Deutschland";"48,743950737116190";"9,097709655761719";"Nein";"Nein";"Nein";"Nein";"Nein";"Flinkster (Endkd.)";"DB Fuhrpark"
"401954";"Station";"Pfaffenwaldring";"PFA";"stationbased";"Stuttgart";"Deutschland";"48,747473896269110";"9,101293087005615";"Nein";"Nein";"Nein";"Nein";"Nein";"Flinkster (Endkd.)";"DB Fuhrpark"
"401955";"Station";"Allmandring";"ALL";"stationbased";"Stuttgart";"Deutschland";"48,743950737116190";"9,097709655761719";"Nein";"Nein";"Nein";"Nein";"Nein";"Flinkster (Endkd.)";"DB Fuhrpark"
"401956";"Station";"Pfaffen";"PFA";"stationbased";"Stuttgart";"Deutschland";"48,747643680833164";"9,101486206054688";"Nein";"Nein";"Nein";"Nein";"Nein";"Flinkster (Endkd.)";"DB Fuhrpark"
"401957";"Station";"Studentenhotel Neckarstraße";"STU";"stationbased";"Stuttgart";"Deutschland";"48,790609017928180";"9,198174476623535";"Nein";"Nein";"Nein";"Nein";"Nein";"Flinkster (Endkd.)";"DB Fuhrpark"
"401959";"Station";"Bf Köln Messe/Deutz - Ottoplatz";"BFD 1";"stationbased";"Köln";"Deutschland";"50,940474211933974";"6,973786354064941";"Nein";"Ja";"Nein";"Nein";"Nein";"Flinkster (Endkd.)";"DB Fuhrpark"
"401969";"Station";"Camberger Straße 10";"DB CAM";"stationbased";"Frankfurt am Main";"Deutschland";"50,101853098837100";"8,647114634513855";"Nein";"Nein";"Ja";"Nein";"Ja";"Flinkster (Endkd.)";"DB Fuhrpark"
"401970";"Station";"Zahn-Nopper-Straße";"ZNS";"stationbased";"Stuttgart";"Deutschland";"48,832495903113575";"9,162173867225647";"Nein";"Nein";"Nein";"Nein";"Ja";"Flinkster (Endkd.)";"DB Fuhrpark"
"401973";"Station";"Marienplatz";"MAR";"stationbased";"Stuttgart";"Deutschland";"48,763657445314145";"9,167672395706177";"Nein";"Nein";"Nein";"Nein";"Nein";"Flinkster (Endkd.)";"DB Fuhrpark"
"401974";"Station";"Wunderlichstrasse";"WUND";"stationbased";"Stuttgart";"Deutschland";"48,790842271096400";"9,213452339172363";"Nein";"Nein";"Nein";"Nein";"Nein";"Flinkster (Endkd.)";"DB Fuhrpark"
"401975";"Station";"Rotenbergstraße";"RBS";"stationbased";"Stuttgart";"Deutschland";"48,787859376125860";"9,207201719218574";"Nein";"Nein";"Nein";"Nein";"Nein";"Flinkster (Endkd.)";"DB Fuhrpark"
"401978";"Station";"Fichtner";"FICHT";"stationbased";"Stuttgart";"Deutschland";"48,805065130779056";"9,188262730831411";"Nein";"Nein";"Nein";"Nein";"Nein";"Flinkster (Endkd.)";"DB Fuhrpark"
"401979";"Station";"Bonner Wall / Zugweg";"BOZ";"stationbased";"Köln";"Deutschland";"50,916640603940500";"6,956979632377625";"Nein";"Nein";"Nein";"Nein";"Nein";"Flinkster (Endkd.)";"DB Fuhrpark"
"401980";"Station";"Rotenwald";"ROTENW";"stationbased";"Stuttgart";"Deutschland";"48,772302331438230";"9,148866891828220";"Nein";"Nein";"Nein";"Nein";"Nein";"Flinkster (Endkd.)";"DB Fuhrpark"
"401981";"Station";"Botnanger Str";"BOTN";"stationbased";"Stuttgart";"Deutschland";"48,775576038807510";"9,140222668647766";"Nein";"Nein";"Nein";"Nein";"Nein";"Flinkster (Endkd.)";"DB Fuhrpark"
"401982";"Station";"Herdweg";"HERD";"stationbased";"Stuttgart";"Deutschland";"48,786034297708376";"9,153499603271484";"Nein";"Nein";"Nein";"Nein";"Nein";"Flinkster (Endkd.)";"DB Fuhrpark"
"401986";"Station";"Geisbergstraße";"GEIS";"stationbased";"Berlin";"Deutschland";"52,497250340205596";"13,344807922840118";"Nein";"Nein";"Nein";"Ja";"Nein";"Flinkster (Endkd.)";"DB Fuhrpark"
"401988";"Station";"Annastraße";"ANN";"stationbased";"Köln";"Deutschland";"50,904945871695310";"6,961391866207123";"Nein";"Nein";"Nein";"Nein";"Nein";"Flinkster (Endkd.)";"DB Fuhrpark"
"402024";"Station";"Lothringer Straße";"LOT";"stationbased";"Köln";"Deutschland";"50,923204601866395";"6,950740814208984";"Nein";"Nein";"Nein";"Nein";"Nein";"Flinkster (Endkd.)";"DB Fuhrpark"
"402051";"Station";"Großgartacher Straße 5";"GGA";"stationbased";"Heilbronn";"Deutschland";"49,140842611728180";"9,198525846004486";"Nein";"Nein";"Nein";"Nein";"Ja";"Flinkster (Endkd.)";"DB Fuhrpark"
"402088";"Station";"Gerhard-Winkler-Hof";"GWH";"stationbased";"Köln";"Deutschland";"50,938865176990056";"6,943702697753906";"Nein";"Nein";"Nein";"Nein";"Nein";"Flinkster (Endkd.)";"DB Fuhrpark"
"402089";"Station";"Severinswall";"SEV";"stationbased";"Köln";"Deutschland";"50,923461596857350";"6,964902877807617";"Nein";"Nein";"Nein";"Nein";"Nein";"Flinkster (Endkd.)";"DB Fuhrpark"
"402090";"Station";"Subbelrather Straße";"SUB";"stationbased";"Köln";"Deutschland";"50,952614545763630";"6,923940181732178";"Nein";"Nein";"Nein";"Nein";"Nein";"Flinkster (Endkd.)";"DB Fuhrpark"
"402091";"Station";"Großgartacher Straße";"GGT";"stationbased";"Heilbronn";"Deutschland";"";"";"Nein";"Nein";"Nein";"Nein";"Nein";"Flinkster (Endkd.)";"DB Fuhrpark"
"402092";"Station";"Bahnhof Süd / Dasselstraße";"BFS";"stationbased";"Köln";"Deutschland";"50,929568191726210";"6,934969425201416";"Nein";"Nein";"Nein";"Nein";"Nein";"Flinkster (Endkd.)";"DB Fuhrpark"
"402093";"Station";"Zahn-Notter-Strasse";"ZAHN";"stationbased";"Stuttgart";"Deutschland";"48,832488840721396";"9,162163138389587";"Nein";"Nein";"Nein";"Nein";"Nein";"Flinkster (Endkd.)";"DB Fuhrpark"
"402097";"Station";"Aachener Weiher";"AAC";"stationbased";"Köln";"Deutschland";"50,936796335959410";"6,929248809683486";"Nein";"Nein";"Nein";"Nein";"Nein";"Flinkster (Endkd.)";"DB Fuhrpark"
"402100";"Station";"MINI E am HBF";"HBF MINI E";"stationbased";"Berlin";"Deutschland";"52,524785934724570";"13,368151187896728";"Nein";"Nein";"Nein";"Nein";"Nein";"Flinkster (Endkd.)";"DB Fuhrpark"
"402103";"Station";"Fridolinstraße";"FRI";"stationbased";"Köln";"Deutschland";"50,954223104872575";"6,922180652618408";"Nein";"Nein";"Nein";"Nein";"Nein";"Flinkster (Endkd.)";"DB Fuhrpark"
"402113";"Station";"Gutshaus Stellshagen";"GH";"stationbased";"Stellshagen";"Deutschland";"53,946567744483130";"11,141461730003357";"Nein";"Nein";"Nein";"Nein";"Nein";"Flinkster (Endkd.)";"DB Fuhrpark"
"402162";"Station";"Ölbergstraße";"OEL";"stationbased";"Köln";"Deutschland";"50,910907761796520";"6,924236297345487";"Nein";"Nein";"Nein";"Nein";"Nein";"Flinkster (Endkd.)";"DB Fuhrpark"
"402163";"Station";"Schönhauser Straße";"SCH";"stationbased";"Köln";"Deutschland";"50,912030710384340";"6,966361999511719";"Nein";"Nein";"Nein";"Nein";"Nein";"Flinkster (Endkd.)";"DB Fuhrpark"
"402164";"Station";"Moselstraße";"MOS";"stationbased";"Köln";"Deutschland";"50,926822690117100";"6,940011978149414";"Nein";"Nein";"Nein";"Nein";"Ja";"Flinkster (Endkd.)";"DB Fuhrpark"
"402211";"Station";"Mauritiuswall";"MAW";"stationbased";"Köln";"Deutschland";"50,930710975911900";"6,942672729492188";"Nein";"Nein";"Nein";"Nein";"Nein";"Flinkster (Endkd.)";"DB Fuhrpark"
"402212";"Station";"Palanterstraße";"PAL";"stationbased";"Stuttgart";"Deutschland";"50,922622976381740";"6,926107406616211";"Nein";"Nein";"Nein";"Nein";"Nein";"Flinkster (Endkd.)";"DB Fuhrpark"
"402213";"Station";"Palanterstraße";"PAL";"stationbased";"Köln";"Deutschland";"50,922541818759285";"6,925892829895020";"Nein";"Nein";"Nein";"Nein";"Ja";"Flinkster (Endkd.)";"DB Fuhrpark"
"402214";"Station";"Achterstraße 81";"ACH81";"stationbased";"Köln";"Deutschland";"50,928438904032820";"6,958287477427803";"Nein";"Nein";"Nein";"Nein";"Nein";"Flinkster (Endkd.)";"DB Fuhrpark"
"402215";"Station";"Bonner Straße / Veledastraße";"BOV";"stationbased";"Köln";"Deutschland";"50,917834434430790";"6,960783004760742";"Nein";"Nein";"Nein";"Nein";"Nein";"Flinkster (Endkd.)";"DB Fuhrpark"
"402216";"Station";"Vogteistraße";"VEI";"stationbased";"Köln";"Deutschland";"50,947072024988380";"6,951556205749512";"Nein";"Nein";"Nein";"Nein";"Ja";"Flinkster (Endkd.)";"DB Fuhrpark"
"402218";"Station";"Diesterwegstraße";"DIEST";"stationbased";"Berlin";"Deutschland";"52,542863717468490";"13,426870107650757";"Nein";"Nein";"Nein";"Nein";"Ja";"Flinkster (Endkd.)";"DB Fuhrpark"
"402230";"Station";"Klotzstrasse";"KLOTZ";"stationbased";"Stuttgart";"Deutschland";"48,796487727251810";"9,209842085838318";"Nein";"Nein";"Nein";"Nein";"Nein";"Flinkster (Endkd.)";"DB Fuhrpark"
"402231";"Station";"Isoldestraße";"ISOLDE";"stationbased";"Berlin";"Deutschland";"52,476066169246990";"13,332024514675140";"Nein";"Nein";"Nein";"Nein";"Nein";"Flinkster (Endkd.)";"DB Fuhrpark"
"402235";"Station";"Burgstallstraße 76-82";"BURG";"stationbased";"Stuttgart";"Deutschland";"48,756705099505790";"9,147266149520874";"Nein";"Nein";"Nein";"Nein";"Nein";"Flinkster (Endkd.)";"DB Fuhrpark"
"402268";"Station";"Hauptbahnhof C Berlin";"Hbf C Berlin";"stationbased";"Berlin";"Deutschland";"52,524398000000000";"13,366149000000000";"Nein";"Ja";"Ja";"Ja";"Ja";"Flinkster (Endkd.)";"DB Fuhrpark"
"402270";"Station";"Relexa Waldhotel ";"RELEXA";"stationbased";"Stuttgart";"Deutschland";"48,754363859067560";"9,088096618652344";"Nein";"Nein";"Nein";"Nein";"Nein";"Flinkster (Endkd.)";"DB Fuhrpark"
"402278";"Station";"Dasselstraße 24";"DAS24";"stationbased";"Köln";"Deutschland";"50,930521640827635";"6,934229135513306";"Nein";"Nein";"Nein";"Nein";"Nein";"Flinkster (Endkd.)";"DB Fuhrpark"
"402279";"Station";"Lindenthalgürtel";"LIN";"stationbased";"Köln";"Deutschland";"50,927194627164120";"6,909670829772949";"Nein";"Nein";"Nein";"Nein";"Nein";"Flinkster (Endkd.)";"DB Fuhrpark"
"402280";"Station";"Schleiermacherstraße";"SLM";"stationbased";"Köln";"Deutschland";"50,959094063504220";"6,999147981405258";"Nein";"Nein";"Nein";"Nein";"Nein";"Flinkster (Endkd.)";"DB Fuhrpark"
"402281";"Station";"Wexstraße";"WEX";"stationbased";"Berlin";"Deutschland";"52,478977351541740";"13,334323167800903";"Nein";"Nein";"Nein";"Nein";"Nein";"Flinkster (Endkd.)";"DB Fuhrpark"
"402286";"Station";"DB-Trainingszentrum";"DB-TRAINING";"stationbased";"Regensburg";"Deutschland";"49,012140163127896";"12,039518952369690";"Nein";"Nein";"Nein";"Nein";"Nein";"Flinkster (Endkd.)";"DB Fuhrpark"
"402289";"Station";"Düsseldorfer Straße";"DÜSS";"stationbased";"Berlin";"Deutschland";"52,495153611289260";"13,323041796684265";"Nein";"Nein";"Nein";"Nein";"Nein";"Flinkster (Endkd.)";"DB Fuhrpark"
"402292";"Station";"Parkraumquartier Monumentenbrücke";"PR MONU";"parkingarea";"Berlin";"Deutschland";"52,487944934743446";"13,371997475624084";"Nein";"Nein";"Nein";"Nein";"Ja";"Flinkster (Endkd.)";"DB Fuhrpark"
"402297";"Station";"Frankfurt (Main) HBF-Elektro";"DB HBF";"stationbased";"Frankfurt am Main";"Deutschland";"50,107172389832040";"8,664669692516327";"Nein";"Ja";"Nein";"Nein";"Ja";"Flinkster (Endkd.)";"DB Fuhrpark"
"402298";"Station";"Klingenstraße";"KLI";"stationbased";"Stuttgart";"Deutschland";"48,777182764162454";"9,208085238933563";"Nein";"Nein";"Nein";"Nein";"Nein";"Flinkster (Endkd.)";"DB Fuhrpark"
"402306";"Station";"Bielefelder Straße";"BIEL";"stationbased";"Berlin";"Deutschland";"52,490086103627355";"13,306386619806290";"Nein";"Nein";"Nein";"Nein";"Nein";"Flinkster (Endkd.)";"DB Fuhrpark"
"402307";"Station";"Wilhelmsaue";"WILH";"stationbased";"Berlin";"Deutschland";"52,485114381427720";"13,328162133693695";"Nein";"Nein";"Nein";"Nein";"Ja";"Flinkster (Endkd.)";"DB Fuhrpark"
"402312";"Station";"BvS_DB_Parkhaus";"BvS";"stationbased";"Kassel";"Deutschland";"";"";"Nein";"Nein";"Nein";"Nein";"Nein";"Flinkster (Endkd.)";"DB Fuhrpark"
"402316";"Station";"Hansaring";"HAN";"stationbased";"Köln";"Deutschland";"50,949343186595140";"6,952393054962158";"Nein";"Nein";"Nein";"Nein";"Ja";"Flinkster (Endkd.)";"DB Fuhrpark"
"402317";"Station";"Neusser Straße 225";"NEU";"stationbased";"Köln";"Deutschland";"50,962292094762960";"6,954211592674255";"Nein";"Nein";"Nein";"Nein";"Nein";"Flinkster (Endkd.)";"DB Fuhrpark"
"402321";"Station";"Feuerbacher Weg";"FEU";"stationbased";"Stuttgart";"Deutschland";"48,800883498539270";"9,162023663520813";"Nein";"Nein";"Nein";"Nein";"Nein";"Flinkster (Endkd.)";"DB Fuhrpark"
"402322";"Station";"Freibad";"Freibad";"stationbased";"Stuttgart";"Deutschland";"48,727675913839580";"9,102044105529785";"Nein";"Nein";"Nein";"Nein";"Nein";"Flinkster (Endkd.)";"DB Fuhrpark"
"402323";"Station";"ELEKTRO Hamburger Bahnhof";"ELEKTRO - HAM";"stationbased";"Berlin";"Deutschland";"52,527436068010770";"13,371874094009400";"Nein";"Nein";"Nein";"Nein";"Nein";"Flinkster (Endkd.)";"DB Fuhrpark"
"402326";"Station";"Wismarsche Straße";"WIS";"stationbased";"Schwerin";"Deutschland";"53,653210185270510";"11,404237747192383";"Nein";"Nein";"Nein";"Nein";"Nein";"Flinkster (Endkd.)";"DB Fuhrpark"
"402331";"Station";"Europäisches Energie Forum - Gasometer Berlin-Schöneberg";"EUREF";"stationbased";"Berlin";"Deutschland";"52,481821367759544";"13,356792032718658";"Nein";"Nein";"Nein";"Nein";"Ja";"Flinkster (Endkd.)";"DB Fuhrpark"
"402333";"Station";"Sudermanplatz";"SUD";"stationbased";"Köln";"Deutschland";"50,951681826326190";"6,955187916755676";"Nein";"Nein";"Nein";"Nein";"Nein";"Flinkster (Endkd.)";"DB Fuhrpark"
"402334";"Station";"Am Trutzenberg";"ATB";"stationbased";"Köln";"Deutschland";"50,927698428058330";"6,948670148849487";"Nein";"Nein";"Nein";"Nein";"Nein";"Flinkster (Endkd.)";"DB Fuhrpark"
"402335";"Station";"Alteburger Straße";"ABS";"stationbased";"Köln";"Deutschland";"50,909301086435210";"6,972254812717438";"Nein";"Nein";"Nein";"Nein";"Nein";"Flinkster (Endkd.)";"DB Fuhrpark"
"402338";"Station";"InterCityHotel am ICE Bahnhof Wilhelmshöhe";"ICE";"stationbased";"Kassel";"Deutschland";"51,312870344836110";"9,448210000991821";"Nein";"Ja";"Nein";"Nein";"Nein";"Flinkster (Endkd.)";"DB Fuhrpark"
"402339";"Station";"Rothgerberbach";"ROT";"stationbased";"Köln";"Deutschland";"50,930481068923570";"6,947758197784424";"Nein";"Nein";"Nein";"Nein";"Nein";"Flinkster (Endkd.)";"DB Fuhrpark"
"402341";"Station";"Neckarstraße";"BRUHN";"stationbased";"Stuttgart";"Deutschland";"48,793722504942245";"9,202911257743835";"Nein";"Nein";"Nein";"Nein";"Nein";"Flinkster (Endkd.)";"DB Fuhrpark"
"402344";"Station";"Sommerkamp";"SKAMP";"stationbased";"Hamburg";"Deutschland";"53,617373389879790";"10,032561421394348";"Nein";"Nein";"Nein";"Nein";"Nein";"Flinkster (Endkd.)";"DB Fuhrpark"
"402346";"Station";"Tübinger Straße";"TÜB";"stationbased";"Stuttgart";"Deutschland";"48,771144462667160";"9,173224568367004";"Nein";"Nein";"Nein";"Nein";"Nein";"Flinkster (Endkd.)";"DB Fuhrpark"
"402377";"Station";"Mülheimer Freiheit";"MFR";"stationbased";"Köln";"Deutschland";"50,965549028705055";"7,000608444213867";"Nein";"Nein";"Nein";"Nein";"Ja";"Flinkster (Endkd.)";"DB Fuhrpark"
"402384";"Station";"Merowingerstraße";"MER";"stationbased";"Köln";"Deutschland";"50,920364036357380";"6,956727504730225";"Nein";"Nein";"Nein";"Nein";"Nein";"Flinkster (Endkd.)";"DB Fuhrpark"
"402435";"Station";"Hagen Campus";"HAG";"stationbased";"Köln";"Deutschland";"50,930945141909490";"7,002727067811065";"Nein";"Nein";"Nein";"Nein";"Ja";"Flinkster (Endkd.)";"DB Fuhrpark"
"402442";"Station";"Am Studio";"AMS";"stationbased";"Berlin";"Deutschland";"52,426553138174950";"13,546555638313293";"Nein";"Nein";"Nein";"Nein";"Nein";"Flinkster (Endkd.)";"DB Fuhrpark"
"402459";"Station";"MINI E am EUREF-Campus";"EUREF MINI E";"stationbased";"Berlin";"Deutschland";"52,482237908404060";"13,357197046279907";"Nein";"Nein";"Nein";"Nein";"Nein";"Flinkster (Endkd.)";"DB Fuhrpark"
"402462";"Station";"Scandic Hotel";"SCA";"stationbased";"Berlin";"Deutschland";"52,504460756801480";"13,374717235565186";"Nein";"Nein";"Nein";"Nein";"Nein";"Flinkster (Endkd.)";"DB Fuhrpark"
"402464";"Station";"The Ritz-Carlton";"RITZ";"stationbased";"Berlin";"Deutschland";"52,509990227446885";"13,375629186630249";"Nein";"Nein";"Nein";"Nein";"Nein";"Flinkster (Endkd.)";"DB Fuhrpark"
"402481";"Station";"Dasselstraße 39";"DAS39";"stationbased";"Köln";"Deutschland";"50,929574953845380";"6,934862136840820";"Nein";"Nein";"Nein";"Nein";"Nein";"Flinkster (Endkd.)";"DB Fuhrpark"
"402520";"Station";"Zülpicher Wall 50";"ZUW50";"stationbased";"Köln";"Deutschland";"50,929547905362780";"6,933231353759766";"Nein";"Nein";"Nein";"Nein";"Nein";"Flinkster (Endkd.)";"DB Fuhrpark"
"402545";"Station";"Moltkestraße";"MOL";"stationbased";"Köln";"Deutschland";"50,937256086365170";"6,932244300842285";"Nein";"Nein";"Nein";"Nein";"Nein";"Flinkster (Endkd.)";"DB Fuhrpark"
"402546";"Station";"IKEA";"IKEA";"stationbased";"Berlin";"Deutschland";"52,534471852912920";"13,510769605636597";"Nein";"Nein";"Nein";"Nein";"Nein";"Flinkster (Endkd.)";"DB Fuhrpark"
"402667";"Station";"Sredzkistraße";"SRE";"stationbased";"Berlin";"Deutschland";"52,537989322666580";"13,412659764289856";"Nein";"Nein";"Nein";"Nein";"Ja";"Flinkster (Endkd.)";"DB Fuhrpark"
"402671";"Station";"Heinrich-Roller-Straße";"HRS";"stationbased";"Berlin";"Deutschland";"52,530903519393405";"13,422342538833618";"Nein";"Nein";"Nein";"Nein";"Nein";"Flinkster (Endkd.)";"DB Fuhrpark"
"402672";"Station";"Kanzowstraße";"KAN";"stationbased";"Berlin";"Deutschland";"52,545007105295284";"13,427084684371948";"Nein";"Nein";"Nein";"Nein";"Ja";"Flinkster (Endkd.)";"DB Fuhrpark"
"402673";"Station";"U-Bahnhof Senefelder Platz";"SEN";"stationbased";"Berlin";"Deutschland";"52,531661590186240";"13,412632271647453";"Nein";"Nein";"Nein";"Nein";"Ja";"Flinkster (Endkd.)";"DB Fuhrpark"
"402674";"Station";"Christinenstraße";"CHR";"stationbased";"Berlin";"Deutschland";"52,531388124911125";"13,409093767404556";"Nein";"Nein";"Nein";"Nein";"Ja";"Flinkster (Endkd.)";"DB Fuhrpark"
"402675";"Station";"Kollwitzstraße";"KOLL";"stationbased";"Berlin";"Deutschland";"52,536771455129376";"13,418421149253845";"Nein";"Nein";"Nein";"Nein";"Nein";"Flinkster (Endkd.)";"DB Fuhrpark"
"402676";"Station";"Winsstraße";"WIN";"stationbased";"Berlin";"Deutschland";"52,536091947038990";"13,427448123693466";"Nein";"Nein";"Nein";"Nein";"Ja";"Flinkster (Endkd.)";"DB Fuhrpark"
"402677";"Station";"Danziger Straße";"DANZ";"stationbased";"Berlin";"Deutschland";"52,536625439271960";"13,432269394397736";"Nein";"Nein";"Nein";"Nein";"Nein";"Flinkster (Endkd.)";"DB Fuhrpark"
"402678";"Station";"Kolmarer Straße";"KOLM";"stationbased";"Berlin";"Deutschland";"52,533959544848244";"13,419393450021744";"Nein";"Nein";"Nein";"Nein";"Nein";"Flinkster (Endkd.)";"DB Fuhrpark"
"402679";"Station";"Marienburger Straße";"MARIE";"stationbased";"Berlin";"Deutschland";"52,533238387698620";"13,428699374198914";"Nein";"Nein";"Nein";"Nein";"Nein";"Flinkster (Endkd.)";"DB Fuhrpark"
"402680";"Station";"Wörther Straße";"WÖR";"stationbased";"Berlin";"Deutschland";"52,535775437879890";"13,421588243118322";"Nein";"Nein";"Nein";"Nein";"Ja";"Flinkster (Endkd.)";"DB Fuhrpark"
"402689";"Station";"Pasteurstraße";"PAST";"stationbased";"Berlin";"Deutschland";"52,533620178253170";"13,433318138122559";"Nein";"Nein";"Nein";"Nein";"Nein";"Flinkster (Endkd.)";"DB Fuhrpark"
"402690";"Station";"Buchholzer Straße";"BUHO";"stationbased";"Berlin";"Deutschland";"52,545068273503100";"13,414923548698425";"Nein";"Nein";"Nein";"Nein";"Nein";"Flinkster (Endkd.)";"DB Fuhrpark"
"402691";"Station";"Lychener Straße";"LYCH";"stationbased";"Berlin";"Deutschland";"52,541114185216050";"13,414695560932160";"Nein";"Nein";"Nein";"Nein";"Nein";"Flinkster (Endkd.)";"DB Fuhrpark"
"402692";"Station";"Topsstraße";"TOP";"stationbased";"Berlin";"Deutschland";"52,542706303202050";"13,411727696657180";"Nein";"Nein";"Nein";"Nein";"Nein";"Flinkster (Endkd.)";"DB Fuhrpark"
"402693";"Station";"Dunckerstraße";"DUN";"stationbased";"Berlin";"Deutschland";"52,542181856780070";"13,420384526252747";"Nein";"Nein";"Nein";"Nein";"Nein";"Flinkster (Endkd.)";"DB Fuhrpark"
"402694";"Station";"Kopenhagener Straße ggü. Rhinower Str.";"KOP";"stationbased";"Berlin";"Deutschland";"52,548983677005600";"13,410004377365112";"Nein";"Nein";"Nein";"Nein";"Nein";"Flinkster (Endkd.)";"DB Fuhrpark"
"402695";"Station";"Oderberger Straße";"ODER";"stationbased";"Berlin";"Deutschland";"52,540393961236540";"13,405023515224457";"Nein";"Nein";"Nein";"Nein";"Ja";"Flinkster (Endkd.)";"DB Fuhrpark"
"402696";"Station";"Sonnenburger Straße";"SONN";"stationbased";"Berlin";"Deutschland";"52,547333068335085";"13,407611846923828";"Nein";"Nein";"Nein";"Nein";"Nein";"Flinkster (Endkd.)";"DB Fuhrpark"
"402697";"Station";"Stargarder Straße";"STAR";"stationbased";"Berlin";"Deutschland";"52,546734462698110";"13,417750597000122";"Nein";"Nein";"Nein";"Nein";"Nein";"Flinkster (Endkd.)";"DB Fuhrpark"
"402698";"Station";"Driesener Straße";"DRIE";"stationbased";"Berlin";"Deutschland";"52,551074576329015";"13,405601531267166";"Nein";"Nein";"Nein";"Nein";"Nein";"Flinkster (Endkd.)";"DB Fuhrpark"
"402700";"Station";"Gehringstraße";"GEH";"stationbased";"Berlin";"Deutschland";"52,562333057734580";"13,465118408203125";"Nein";"Nein";"Nein";"Nein";"Nein";"Flinkster (Endkd.)";"DB Fuhrpark"
"402701";"Station";"Pfarrer-Perabo-Platz 2";"DB PPP";"stationbased";"Frankfurt am Main";"Deutschland";"50,098420707189010";"8,634910583496093";"Nein";"Nein";"Nein";"Nein";"Ja";"Flinkster (Endkd.)";"DB Fuhrpark"
"402716";"Station";"Parkraumquartier Akademieviertel";"PRAK";"parkingarea";"München";"Deutschland";"48,152700000000000";"11,580100000000000";"Nein";"Nein";"Nein";"Nein";"Ja";"Flinkster (Endkd.)";"DB Fuhrpark"
"402726";"Station";"Parkraumquartier Klinikviertel";"PRKL";"parkingarea";"München";"Deutschland";"48,138125523294000";"11,600947082926000";"Nein";"Nein";"Nein";"Nein";"Ja";"Flinkster (Endkd.)";"DB Fuhrpark"
"402727";"Station";"Parkraumquartier Grillparzerstraße";"PRGR";"parkingarea";"München";"Deutschland";"48,136608246071000";"11,607860307495000";"Nein";"Nein";"Nein";"Nein";"Ja";"Flinkster (Endkd.)";"DB Fuhrpark"
"402728";"Station";"Parkraumquartier Kirchenstraße";"PRKI";"parkingarea";"München";"Deutschland";"48,133213104928000";"11,601398058785000";"Nein";"Nein";"Nein";"Nein";"Ja";"Flinkster (Endkd.)";"DB Fuhrpark"
"402729";"Station";"Parkraumquartier Franzosenviertel";"PRFV";"parkingarea";"München";"Deutschland";"48,130400198987000";"11,596576044536000";"Nein";"Nein";"Nein";"Nein";"Ja";"Flinkster (Endkd.)";"DB Fuhrpark"
"402730";"Station";"Parkraumquartier Franziskanerstraße";"PRFS";"parkingarea";"München";"Deutschland";"48,126837317843000";"11,591749957215000";"Nein";"Nein";"Nein";"Nein";"Ja";"Flinkster (Endkd.)";"DB Fuhrpark"
"402731";"Station";"Parkraumquartier Regerplatz";"PRRP";"parkingarea";"München";"Deutschland";"48,123243128309000";"11,588561664370000";"Nein";"Nein";"Nein";"Nein";"Ja";"Flinkster (Endkd.)";"DB Fuhrpark"
"402732";"Station";"Parkraumquartier Nördliche Au";"PRNA";"parkingarea";"München";"Deutschland";"48,127283167084000";"11,585047455353000";"Nein";"Nein";"Nein";"Nein";"Ja";"Flinkster (Endkd.)";"DB Fuhrpark"
"402733";"Station";"Parkraumquartier Südliche Au";"PRSA";"parkingarea";"München";"Deutschland";"48,122174493163000";"11,577818056190000";"Nein";"Nein";"Nein";"Nein";"Ja";"Flinkster (Endkd.)";"DB Fuhrpark"
"402734";"Station";"Parkraumquartier Alter Südfriedhof";"PRAS";"parkingarea";"München";"Deutschland";"48,129859560898000";"11,563208506977000";"Nein";"Nein";"Nein";"Nein";"Ja";"Flinkster (Endkd.)";"DB Fuhrpark"
"402735";"Station";"Parkraumquartier Dreimühlenviertel";"PRDR";"parkingarea";"München";"Deutschland";"48,121960328660000";"11,559879723879000";"Nein";"Nein";"Nein";"Nein";"Ja";"Flinkster (Endkd.)";"DB Fuhrpark"
"402736";"Station";"Parkraumquartier Gärtnerplatz";"PRGP";"parkingarea";"München";"Deutschland";"48,132249336117000";"11,578841684412000";"Nein";"Nein";"Nein";"Nein";"Ja";"Flinkster (Endkd.)";"DB Fuhrpark"
"402737";"Station";"Parkraumquartier Glockenbachviertel";"PRGL";"parkingarea";"München";"Deutschland";"48,128106416958000";"11,569288561091000";"Nein";"Nein";"Nein";"Nein";"Ja";"Flinkster (Endkd.)";"DB Fuhrpark"
"402738";"Station";"Parkraumquartier Innenstadtklinikum";"PRIK";"parkingarea";"München";"Deutschland";"48,133106007897000";"11,558235059407000";"Nein";"Nein";"Nein";"Nein";"Ja";"Flinkster (Endkd.)";"DB Fuhrpark"
"402739";"Station";"Parkraumquartier Lindwurmstraße";"PRLI";"parkingarea";"München";"Deutschland";"48,126216121109000";"11,552108934787000";"Nein";"Nein";"Nein";"Nein";"Ja";"Flinkster (Endkd.)";"DB Fuhrpark"
"402740";"Station";"Parkraumquartier St.-Pauls-Viertel";"PRSP";"parkingarea";"München";"Deutschland";"48,137095775202000";"11,552127318952000";"Nein";"Nein";"Nein";"Nein";"Ja";"Flinkster (Endkd.)";"DB Fuhrpark"
"402741";"Station";"Parkraumquartier Nördliches Lehel";"PRNL";"parkingarea";"München";"Deutschland";"48,146036547527000";"11,593941339773000";"Nein";"Nein";"Nein";"Nein";"Ja";"Flinkster (Endkd.)";"DB Fuhrpark"
"402742";"Station";"Parkraumquartier Mittleres Lehel";"PRML";"parkingarea";"München";"Deutschland";"48,139740488528000";"11,588174832370000";"Nein";"Nein";"Nein";"Nein";"Ja";"Flinkster (Endkd.)";"DB Fuhrpark"
"402743";"Station";"Parkraumquartier Südliches Lehel";"PRSL";"parkingarea";"München";"Deutschland";"48,135784058220000";"11,585689421281000";"Nein";"Nein";"Nein";"Nein";"Ja";"Flinkster (Endkd.)";"DB Fuhrpark"
"402744";"Station";"Parkraumquartier Giselastraße";"PRGI";"parkingarea";"München";"Deutschland";"48,153679626523000";"11,585086376719000";"Nein";"Nein";"Nein";"Nein";"Ja";"Flinkster (Endkd.)";"DB Fuhrpark"
"402745";"Station";"Parkraumquartier Karolinenplatz";"PRKA";"parkingarea";"München";"Deutschland";"48,143450014596000";"11,568709857003000";"Nein";"Nein";"Nein";"Nein";"Ja";"Flinkster (Endkd.)";"DB Fuhrpark"
"402746";"Station";"Parkraumquartier Königsplatz";"PRKP";"parkingarea";"München";"Deutschland";"48,145433656642000";"11,562004609171000";"Nein";"Nein";"Nein";"Nein";"Ja";"Flinkster (Endkd.)";"DB Fuhrpark"
"402747";"Station";"Parkraumquartier Pinakotheken";"PRPI";"parkingarea";"München";"Deutschland";"48,147305116919000";"11,574837036973000";"Nein";"Nein";"Nein";"Nein";"Ja";"Flinkster (Endkd.)";"DB Fuhrpark"
"402748";"Station";"Parkraumquartier Schleißheimer Straße";"PRSC";"parkingarea";"München";"Deutschland";"48,153770223251000";"11,560560495268000";"Nein";"Nein";"Nein";"Nein";"Ja";"Flinkster (Endkd.)";"DB Fuhrpark"
"402749";"Station";"Parkraumquartier Schönfeldviertel";"PRSF";"parkingarea";"München";"Deutschland";"48,148009295107000";"11,582506765963000";"Nein";"Nein";"Nein";"Nein";"Ja";"Flinkster (Endkd.)";"DB Fuhrpark"
"402750";"Station";"Parkraumquartier TU-Viertel";"PRTU";"parkingarea";"München";"Deutschland";"48,151951110144000";"11,569187245589000";"Nein";"Nein";"Nein";"Nein";"Ja";"Flinkster (Endkd.)";"DB Fuhrpark"
"402751";"Station";"Parkraumquartier Borstei";"PRBO";"parkingarea";"München";"Deutschland";"48,169401761569000";"11,534489176290000";"Nein";"Nein";"Nein";"Nein";"Nein";"Flinkster (Endkd.)";"DB Fuhrpark"
"402752";"Station";"Parkraumquartier Albrechtstraße";"PRAL";"parkingarea";"München";"Deutschland";"48,152522398264000";"11,540932298983000";"Nein";"Nein";"Nein";"Nein";"Ja";"Flinkster (Endkd.)";"DB Fuhrpark"
"402753";"Station";"Parkraumquartier St.-Benno-Viertel";"PRSB";"parkingarea";"München";"Deutschland";"48,151209788390000";"11,552555911952000";"Nein";"Nein";"Nein";"Nein";"Ja";"Flinkster (Endkd.)";"DB Fuhrpark"
"402754";"Station";"Parkraumquartier Heßstraße";"PRHE";"parkingarea";"München";"Deutschland";"48,158162829872000";"11,552954570009000";"Nein";"Nein";"Nein";"Nein";"Ja";"Flinkster (Endkd.)";"DB Fuhrpark"
"402755";"Station";"Parkraumquartier Kasernenviertel";"PRKV";"parkingarea";"München";"Deutschland";"48,154968833199000";"11,546016548228000";"Nein";"Nein";"Nein";"Nein";"Ja";"Flinkster (Endkd.)";"DB Fuhrpark"
"402756";"Station";"Parkraumquartier Ebenau";"PREB";"parkingarea";"München";"Deutschland";"48,161483501790000";"11,541925320527000";"Nein";"Nein";"Nein";"Nein";"Ja";"Flinkster (Endkd.)";"DB Fuhrpark"
"402757";"Station";"Parkraumquartier Volkartstraße";"PRVO";"parkingarea";"München";"Deutschland";"48,158369109068000";"11,541415409331000";"Nein";"Nein";"Nein";"Nein";"Ja";"Flinkster (Endkd.)";"DB Fuhrpark"
"402758";"Station";"Parkraumquartier St.-Vinzenz-Viertel";"PRSV";"parkingarea";"München";"Deutschland";"48,147789692125000";"11,543614456199000";"Nein";"Nein";"Nein";"Nein";"Ja";"Flinkster (Endkd.)";"DB Fuhrpark"
"402759";"Station";"Parkraumquartier Marsfeld";"PRMA";"parkingarea";"München";"Deutschland";"48,145932866871000";"11,551495606096000";"Nein";"Nein";"Nein";"Nein";"Ja";"Flinkster (Endkd.)";"DB Fuhrpark"
"402760";"Station";"Parkraumquartier Altschwabing";"PRAT";"parkingarea";"München";"Deutschland";"48,161648011185000";"11,589587272095000";"Nein";"Nein";"Nein";"Nein";"Ja";"Flinkster (Endkd.)";"DB Fuhrpark"
"402761";"Station";"Parkraumquartier Barbarastraße";"PRBA";"parkingarea";"München";"Deutschland";"48,159448529066000";"11,558528595176000";"Nein";"Nein";"Nein";"Nein";"Ja";"Flinkster (Endkd.)";"DB Fuhrpark"
"402762";"Station";"Parkraumquartier Bayernplatz";"PRBY";"parkingarea";"München";"Deutschland";"48,163573929460000";"11,568915348236000";"Nein";"Nein";"Nein";"Nein";"Ja";"Flinkster (Endkd.)";"DB Fuhrpark"
"402763";"Station";"Parkraumquartier Biederstein";"PRBI";"parkingarea";"München";"Deutschland";"48,168712988385000";"11,596115172593000";"Nein";"Nein";"Nein";"Nein";"Nein";"Flinkster (Endkd.)";"DB Fuhrpark"
"402764";"Station";"Parkraumquartier Clemensstraße";"PRCL";"parkingarea";"München";"Deutschland";"48,165263130805000";"11,579666868226000";"Nein";"Nein";"Nein";"Nein";"Ja";"Flinkster (Endkd.)";"DB Fuhrpark"
"402765";"Station";"Parkraumquartier Kölner Platz";"PRKÖ";"parkingarea";"München";"Deutschland";"48,168791234553000";"11,580285866629000";"Nein";"Nein";"Nein";"Nein";"Ja";"Flinkster (Endkd.)";"DB Fuhrpark"
"402766";"Station";"Parkraumquartier Lerchenauer Straße";"PRLE";"parkingarea";"München";"Deutschland";"48,172351673807000";"11,565373243916000";"Nein";"Nein";"Nein";"Nein";"Ja";"Flinkster (Endkd.)";"DB Fuhrpark"
"402767";"Station";"Parkraumquartier Potsdamer Straße";"PRPO";"parkingarea";"München";"Deutschland";"48,167529440765000";"11,589399127282000";"Nein";"Nein";"Nein";"Nein";"Ja";"Flinkster (Endkd.)";"DB Fuhrpark"
"402768";"Station";"Parkraumquartier Schwabing-Mitte";"PRSM";"parkingarea";"München";"Deutschland";"48,160272256677000";"11,580425199213000";"Nein";"Nein";"Nein";"Nein";"Ja";"Flinkster (Endkd.)";"DB Fuhrpark"
"402769";"Station";"Parkraumquartier West Schwabing";"PRWS";"parkingarea";"München";"Deutschland";"48,158498837914000";"11,570107939128000";"Nein";"Nein";"Nein";"Nein";"Ja";"Flinkster (Endkd.)";"DB Fuhrpark"
"402770";"Station";"Parkraumquartier Tristanstraße";"PRTR";"parkingarea";"München";"Deutschland";"48,173988251321000";"11,584425633242000";"Nein";"Nein";"Nein";"Nein";"Ja";"Flinkster (Endkd.)";"DB Fuhrpark"
"402771";"Station";"Parkraumquartier Winzererstraße";"PRWI";"parkingarea";"München";"Deutschland";"48,164611926966000";"11,562200465122000";"Nein";"Nein";"Nein";"Nein";"Ja";"Flinkster (Endkd.)";"DB Fuhrpark"
"402772";"Station";"Parkraumquartier Ridlerstraße";"PRRI";"parkingarea";"München";"Deutschland";"48,132563884051000";"11,535949643686000";"Nein";"Nein";"Nein";"Nein";"Ja";"Flinkster (Endkd.)";"DB Fuhrpark"
"402773";"Station";"Parkraumquartier Schwanthalerhöhe";"PRSH";"parkingarea";"München";"Deutschland";"48,138125284965000";"11,537744018654000";"Nein";"Nein";"Nein";"Nein";"Ja";"Flinkster (Endkd.)";"DB Fuhrpark"
"402774";"Station";"Parkraumquartier Theresienhöhe";"PRTH";"parkingarea";"München";"Deutschland";"48,136874334604000";"11,544697196496000";"Nein";"Nein";"Nein";"Nein";"Ja";"Flinkster (Endkd.)";"DB Fuhrpark"
"402775";"Station";"Parkraumquartier Westend";"PRWE";"parkingarea";"München";"Deutschland";"48,137973355824000";"11,531851492740000";"Nein";"Nein";"Nein";"Nein";"Nein";"Flinkster (Endkd.)";"DB Fuhrpark"
"402776";"Station";"Parkraumquartier Herzog-Ernst-Platz";"PRHP";"parkingarea";"München";"Deutschland";"48,124791156406000";"11,541131053609000";"Nein";"Nein";"Nein";"Nein";"Ja";"Flinkster (Endkd.)";"DB Fuhrpark"
"402777";"Station";"Parkraumquartier Untersendling";"PRUS";"parkingarea";"München";"Deutschland";"48,119203227047000";"11,546080844554000";"Nein";"Nein";"Nein";"Nein";"Ja";"Flinkster (Endkd.)";"DB Fuhrpark"
"402778";"Station";"Parkraumquartier Margaretenplatz";"PRMP";"parkingarea";"München";"Deutschland";"48,119875358753000";"11,539107421755000";"Nein";"Nein";"Nein";"Nein";"Ja";"Flinkster (Endkd.)";"DB Fuhrpark"
"402779";"Station";"Parkraumquartier Karwendelstraße";"PRKW";"parkingarea";"München";"Deutschland";"48,114157650782000";"11,538337323337000";"Nein";"Nein";"Nein";"Nein";"Ja";"Flinkster (Endkd.)";"DB Fuhrpark"
"402780";"Station";"Parkraumquartier Brudermühlviertel";"PRBR";"parkingarea";"München";"Deutschland";"48,112030810359000";"11,549211501175000";"Nein";"Nein";"Nein";"Nein";"Ja";"Flinkster (Endkd.)";"DB Fuhrpark"
"402781";"Station";"Parkraumquartier Schyrenbad";"PRSY";"parkingarea";"München";"Deutschland";"48,119054262011000";"11,571032324521000";"Nein";"Nein";"Nein";"Nein";"Ja";"Flinkster (Endkd.)";"DB Fuhrpark"
"402782";"Station";"Parkraumquartier Untergiesing";"PRUG";"parkingarea";"München";"Deutschland";"48,114382418156000";"11,571697147096000";"Nein";"Nein";"Nein";"Nein";"Ja";"Flinkster (Endkd.)";"DB Fuhrpark"
"402797";"Station";"Darmstadt HBF West - Elektro";"DB HBF";"stationbased";"Darmstadt";"Deutschland";"49,871121912636480";"8,627412468194962";"Nein";"Ja";"Nein";"Nein";"Nein";"Flinkster (Endkd.)";"DB Fuhrpark"
"402804";"Station";"BWV-Gasag-E-Carsharing";"BWV";"stationbased";"Berlin";"Deutschland";"52,411215536713890";"13,345384597778320";"Nein";"Nein";"Nein";"Nein";"Nein";"Flinkster (Endkd.)";"DB Fuhrpark"
"402806";"Station";"Gubener Straße / Ecke Kopernikusstraße";"GUB";"stationbased";"Berlin";"Deutschland";"52,511026823724810";"13,449497222900390";"Nein";"Nein";"Nein";"Nein";"Nein";"Flinkster (Endkd.)";"DB Fuhrpark"
"402808";"Station";"Alter Wall";"WAL";"stationbased";"Hamburg";"Deutschland";"53,550685738045310";"9,991164207458496";"Nein";"Nein";"Nein";"Nein";"Nein";"Flinkster (Endkd.)";"DB Fuhrpark"
"402814";"Station";"Holstenplatz";"HOL";"stationbased";"Hamburg";"Deutschland";"9,948438000000000";"53,561533000000000";"Nein";"Nein";"Nein";"Nein";"Nein";"Flinkster (Endkd.)";"DB Fuhrpark"
"402818";"Station";"ABC-Straße / Gänsemarkt";"ABC";"stationbased";"Hamburg";"Deutschland";"9,988030000000000";"53,555326000000000";"Nein";"Nein";"Nein";"Nein";"Nein";"Flinkster (Endkd.)";"DB Fuhrpark"
"402823";"Station";"HBF-ELEKTRO (Magdeburg)";"HBF-Elektro";"stationbased";"Magdeburg";"Deutschland";"52,130921800000000";"11,624400100000000";"Nein";"Nein";"Nein";"Nein";"Nein";"Flinkster (Endkd.)";"DB Fuhrpark"
"402845";"Station";"Heidi-Kabel-Platz (ehemals Hachmannplatz)";"HKP";"stationbased";"Hamburg";"Deutschland";"53,554497292650080";"10,007396936416626";"Nein";"Nein";"Nein";"Nein";"Nein";"Flinkster (Endkd.)";"DB Fuhrpark"
"402848";"Station";"Heiligengeistbrücke";"HEI";"stationbased";"Hamburg";"Deutschland";"53,549028433303090";"9,985885620117188";"Nein";"Nein";"Nein";"Nein";"Nein";"Flinkster (Endkd.)";"DB Fuhrpark"
"402854";"Station";"DEKRA-ELEKTRO";"DEK-Elektro";"stationbased";"Stuttgart";"Deutschland";"48,720410000000000";"9,130070000000000";"Nein";"Nein";"Nein";"Nein";"Ja";"Flinkster (Endkd.)";"DB Fuhrpark"
"402855";"Station";"Airport-ELEKTRO";"AP-ELEKTRO";"stationbased";"Stuttgart";"Deutschland";"48,690259236237970";"9,189505577087402";"Nein";"Nein";"Nein";"Nein";"Nein";"Flinkster (Endkd.)";"DB Fuhrpark"
"402860";"Station";"Reinoldstraße";"REI";"stationbased";"Köln";"Deutschland";"50,933050552990860";"6,946331262588501";"Nein";"Nein";"Nein";"Nein";"Ja";"Flinkster (Endkd.)";"DB Fuhrpark"
"402870";"Station";"Umweltministerium Saarland-ELEKTRO";"UMW-Elektro";"stationbased";"Saarbrücken";"Deutschland";"49,236115640860370";"6,986021250486374";"Nein";"Nein";"Nein";"Nein";"Nein";"Flinkster (Endkd.)";"DB Fuhrpark"
"402875";"Station";"Hauptbahnhof-Elektro (Aachen)";"HBF-Elektro";"stationbased";"Aachen";"Deutschland";"50,768262998862910";"6,092509031295776";"Nein";"Nein";"Nein";"Nein";"Nein";"Flinkster (Endkd.)";"DB Fuhrpark"
"402877";"Station";"Potsdamer Straße";"POT";"stationbased";"Berlin";"Deutschland";"52,498635040931255";"13,362652659416199";"Nein";"Nein";"Nein";"Nein";"Nein";"Flinkster (Endkd.)";"DB Fuhrpark"
"402889";"Station";"Lindenstraße";"LIN";"stationbased";"Berlin";"Deutschland";"52,500705479057240";"13,392977714538574";"Nein";"Nein";"Nein";"Nein";"Nein";"Flinkster (Endkd.)";"DB Fuhrpark"
"402899";"Station";"Europa-Center-ELEKTRO";"EUC-Elektro";"stationbased";"Berlin";"Deutschland";"52,504353001128050";"13,340360820293427";"Nein";"Nein";"Nein";"Nein";"Nein";"Flinkster (Endkd.)";"DB Fuhrpark"
"402914";"Station";"Social Impact Lab";"SIL";"stationbased";"Berlin";"Deutschland";"52,496551000000000";"13,413389000000000";"Nein";"Nein";"Nein";"Nein";"Nein";"Flinkster (Endkd.)";"DB Fuhrpark"
"402924";"Station";"Glockengießerwall";"GLO";"stationbased";"Hamburg";"Deutschland";"53,555323721604275";"10,000917077140912";"Nein";"Nein";"Nein";"Nein";"Nein";"Flinkster (Endkd.)";"DB Fuhrpark"
"402925";"Station";"Bauernmarkthalle";"BAU";"stationbased";"Stuttgart";"Deutschland";"48,774246783802930";"9,144625514745712";"Nein";"Nein";"Nein";"Nein";"Nein";"Flinkster (Endkd.)";"DB Fuhrpark"
"402926";"Station";"Markt am Vogelsang";"MAV";"stationbased";"Stuttgart";"Deutschland";"48,774241480853455";"9,144602715969085";"Nein";"Nein";"Nein";"Nein";"Ja";"Flinkster (Endkd.)";"DB Fuhrpark"
"402928";"Station";"Sebastianstraße (Berolina-E-Carsharing)";"SEB";"stationbased";"Berlin";"Deutschland";"52,507964304923576";"13,409543037414550";"Nein";"Nein";"Nein";"Nein";"Nein";"Flinkster (Endkd.)";"DB Fuhrpark"
"402939";"Station";"Heinrich-Heine-Straße (Berolina - E-Carsharing)";"HHS";"stationbased";"Berlin";"Deutschland";"52,508150412902390";"13,414725065231323";"Nein";"Nein";"Nein";"Nein";"Nein";"Flinkster (Endkd.)";"DB Fuhrpark"
"402940";"Station";"Savignyplatz";"SAV";"stationbased";"Berlin";"Deutschland";"52,505561155677405";"13,323052525520324";"Nein";"Nein";"Nein";"Nein";"Nein";"Flinkster (Endkd.)";"DB Fuhrpark"
"402952";"Station";"Pfalzburger Straße";"PFALZ";"stationbased";"Berlin";"Deutschland";"52,492266362994160";"13,322210311889648";"Nein";"Nein";"Nein";"Nein";"Nein";"Flinkster (Endkd.)";"DB Fuhrpark"
"402970";"Station";"Storkower Straße";"STORK";"stationbased";"Berlin";"Deutschland";"52,536608308888155";"13,449463695287704";"Nein";"Nein";"Nein";"Nein";"Nein";"Flinkster (Endkd.)";"DB Fuhrpark"
"402976";"Station";"Heilmannring";"HEI";"stationbased";"Berlin";"Deutschland";"52,535104887743080";"13,287636637687683";"Nein";"Nein";"Nein";"Nein";"Nein";"Flinkster (Endkd.)";"DB Fuhrpark"
"402982";"Station";"Henriette-Herz-Platz (GASAG)";"HHP";"stationbased";"Berlin";"Deutschland";"52,522200921616720";"13,402901887893676";"Nein";"Nein";"Nein";"Nein";"Nein";"Flinkster (Endkd.)";"DB Fuhrpark"
"402985";"Station";"Kiehlufer";"KIEHL";"stationbased";"Berlin";"Deutschland";"52,485784061385026";"13,444221317768097";"Nein";"Nein";"Nein";"Nein";"Nein";"Flinkster (Endkd.)";"DB Fuhrpark"
"402987";"Station";"Steglitzer Kreisel";"KREIS";"stationbased";"Berlin";"Deutschland";"52,455087548283360";"13,319807052612305";"Nein";"Nein";"Nein";"Nein";"Ja";"Flinkster (Endkd.)";"DB Fuhrpark"
"402995";"Station";"Hahnstraße 8 [DB Autohaus Frankfurt]";"DB AHF";"stationbased";"Frankfurt am Main";"Deutschland";"50,087324829897874";"8,631667122244835";"Nein";"Nein";"Nein";"Nein";"Ja";"Flinkster (Endkd.)";"DB Fuhrpark"
"403001";"Station";"Mainzer Landstraße 169-171";"DB MZL";"stationbased";"Frankfurt am Main";"Deutschland";"50,105978525349734";"8,652291297912598";"Nein";"Nein";"Ja";"Nein";"Ja";"Flinkster (Endkd.)";"DB Fuhrpark"
"403013";"Station";"Zillestraße";"ZILLE";"stationbased";"Berlin";"Deutschland";"52,513586377208135";"13,311787247657776";"Nein";"Nein";"Nein";"Nein";"Ja";"Flinkster (Endkd.)";"DB Fuhrpark"
"403031";"Station";"Leipziger Straße";"LEIP";"stationbased";"Berlin";"Deutschland";"52,510246522030236";"13,385928869247437";"Nein";"Nein";"Nein";"Nein";"Ja";"Flinkster (Endkd.)";"DB Fuhrpark"
"403032";"Station";"MoaBogen";"MOABO";"stationbased";"Berlin";"Deutschland";"52,531417494770615";"13,345395326614380";"Nein";"Nein";"Nein";"Nein";"Nein";"Flinkster (Endkd.)";"DB Fuhrpark"
"403048";"Station";"Paul-Schmidt-Straße (BBWO 1892)";"PAUL";"stationbased";"Berlin";"Deutschland";"52,455236286887825";"13,368878066539764";"Nein";"Nein";"Nein";"Nein";"Nein";"Flinkster (Endkd.)";"DB Fuhrpark"
"403049";"Station";"Büschingstraße";"BÜSCH";"stationbased";"Berlin";"Deutschland";"52,524413858876740";"13,426188826560974";"Nein";"Nein";"Nein";"Nein";"Ja";"Flinkster (Endkd.)";"DB Fuhrpark"
"403052";"Station";"Innsbrucker Straße";"INN";"stationbased";"Berlin";"Deutschland";"52,481300278027774";"13,343085944652557";"Nein";"Nein";"Nein";"Nein";"Nein";"Flinkster (Endkd.)";"DB Fuhrpark"
"403055";"Station";"Schönhauser  Allee";"SCHÖN";"stationbased";"Berlin";"Deutschland";"52,529782542704424";"13,411560058593750";"Nein";"Nein";"Nein";"Nein";"Nein";"Flinkster (Endkd.)";"DB Fuhrpark"
"403059";"Station";"Neue Jakobstraße";"NJAK";"stationbased";"Berlin";"Deutschland";"52,511474103386410";"13,412573933601380";"Nein";"Nein";"Nein";"Nein";"Nein";"Flinkster (Endkd.)";"DB Fuhrpark"
"403060";"Station";"Gleditschstraße";"GLED";"stationbased";"Berlin";"Deutschland";"52,491830319767750";"13,355745971202850";"Nein";"Nein";"Nein";"Nein";"Ja";"Flinkster (Endkd.)";"DB Fuhrpark"
"403062";"Station";"Osakaallee";"OSA";"stationbased";"Hamburg";"Deutschland";"53,542704582056196";"9,998652935028076";"Nein";"Nein";"Nein";"Nein";"Nein";"Flinkster (Endkd.)";"DB Fuhrpark"
"403063";"Station";"Schwarzenbergstrasse";"SBS";"stationbased";"Hamburg";"Deutschland";"53,463998252627170";"9,968976974487305";"Nein";"Nein";"Nein";"Nein";"Nein";"Flinkster (Endkd.)";"DB Fuhrpark"
"403064";"Station";"Augustenstraße";"AUGUSTEN";"stationbased";"Hannover";"Deutschland";"52,375952862656730";"9,745377302169800";"Nein";"Nein";"Nein";"Nein";"Nein";"Flinkster (Endkd.)";"DB Fuhrpark"
"403068";"Station";"Lindenhofstraße";"LIN";"stationbased";"Mannheim";"Deutschland";"49,476281048573156";"8,471295833587646";"Nein";"Nein";"Nein";"Nein";"Nein";"Flinkster (Endkd.)";"DB Fuhrpark"
"403072";"Station";"Hbf 2 Siegburg (PH)";"Hbf 2 Siegburg (PH)";"stationbased";"Siegburg";"Deutschland";"50,792854126478580";"7,205953001976013";"Nein";"Nein";"Nein";"Nein";"Ja";"Flinkster (Endkd.)";"DB Fuhrpark"
"403084";"Station";"IT-Park Saarland-ELEKTRO";"ITPS-Elektro";"stationbased";"Saarbrücken";"Deutschland";"49,245592931813230";"6,938842535018921";"Nein";"Nein";"Nein";"Nein";"Nein";"Flinkster (Endkd.)";"DB Fuhrpark"
"403086";"Station";"Saarterrassen-ELEKTRO";"ST-Elektro";"stationbased";"Saarbrücken";"Deutschland";"49,239071798173946";"6,955558061599731";"Nein";"Nein";"Nein";"Nein";"Nein";"Flinkster (Endkd.)";"DB Fuhrpark"
"403091";"Station";"HBF-ELEKTRO (Düsseldorf)";"HBF-Elektro";"stationbased";"Düsseldorf";"Deutschland";"51,220902778882040";"6,793541908264160";"Nein";"Nein";"Nein";"Nein";"Nein";"Flinkster (Endkd.)";"DB Fuhrpark"
"403096";"Station";"Wirtschaftsministerium Saarland-ELEKTRO";"MWAEV-Elektro";"stationbased";"Saarbrücken";"Deutschland";"49,227323179618280";"6,999106407165527";"Nein";"Nein";"Nein";"Nein";"Nein";"Flinkster (Endkd.)";"DB Fuhrpark"
"403111";"Station";"Eurobahnhof-ELEKTRO";"EUBF-Elektro";"stationbased";"Saarbrücken";"Deutschland";"49,242861742796800";"6,990702375769615";"Nein";"Nein";"Nein";"Nein";"Nein";"Flinkster (Endkd.)";"DB Fuhrpark"
"403119";"Station";"Köpenicker Straße";"KÖP";"stationbased";"Berlin";"Deutschland";"52,510218770459616";"13,418694734573364";"Nein";"Nein";"Nein";"Nein";"Nein";"Flinkster (Endkd.)";"DB Fuhrpark"
"403139";"Station";"Prinzregentenstraße 18";"PRS18";"stationbased";"Berlin";"Deutschland";"52,488310786391004";"13,332735300064087";"Nein";"Nein";"Nein";"Nein";"Nein";"Flinkster (Endkd.)";"DB Fuhrpark"
"403153";"Station";"Longericher Straße";"LON";"stationbased";"Köln";"Deutschland";"50,969346244276615";"6,939234137535095";"Nein";"Nein";"Nein";"Nein";"Nein";"Flinkster (Endkd.)";"DB Fuhrpark"
"403157";"Station";"Rathaus-Garage ELEKTRO";"RAT-Elektro";"stationbased";"Stuttgart";"Deutschland";"48,774476577742880";"9,177870154380798";"Nein";"Nein";"Nein";"Nein";"Nein";"Flinkster (Endkd.)";"DB Fuhrpark"
"403167";"Station";"GSG-HOF Helmholtzstraße";"GSG-HELM";"stationbased";"Berlin";"Deutschland";"52,521606864359704";"13,324549895093810";"Nein";"Nein";"Nein";"Nein";"Nein";"Flinkster (Endkd.)";"DB Fuhrpark"
"403168";"Station";"Technologie- und Innovationspark Berlin (TIB)";"GSG-TIB";"stationbased";"Berlin";"Deutschland";"52,542034309143745";"13,383773702751000";"Nein";"Nein";"Nein";"Nein";"Nein";"Flinkster (Endkd.)";"DB Fuhrpark"
"403181";"Station";"Dekra Elektro Airport";"DEK-AIR";"stationbased";"Stuttgart";"Deutschland";"48,691045589719450";"9,192430262951802";"Nein";"Nein";"Nein";"Nein";"Ja";"Flinkster (Endkd.)";"DB Fuhrpark"
"403182";"Station";"Flughafen Elektro";"AIR-EL";"stationbased";"Stuttgart";"Deutschland";"48,694586000000000";"9,189720000000000";"Nein";"Nein";"Nein";"Nein";"Nein";"Flinkster (Endkd.)";"DB Fuhrpark"
"403193";"Station";"Uni Campus-ELEKTRO";"UNI-Elektro";"stationbased";"Saarbrücken";"Deutschland";"49,254417000000000";"7,036722000000000";"Nein";"Nein";"Nein";"Nein";"Nein";"Flinkster (Endkd.)";"DB Fuhrpark"
"403194";"Station";"HTW / Stadtwerke-ELEKTRO";"HTW-Elektro";"stationbased";"Saarbrücken";"Deutschland";"49,234729000000000";"6,978314000000000";"Nein";"Nein";"Nein";"Nein";"Nein";"Flinkster (Endkd.)";"DB Fuhrpark"
"403195";"Station";"Hauptbahnhof-ELEKTRO";"HBF-Elektro";"stationbased";"Homburg / Saar";"Deutschland";"49,327912007706940";"7,338352373016392";"Nein";"Nein";"Nein";"Nein";"Ja";"Flinkster (Endkd.)";"DB Fuhrpark"
"403196";"Station";"Universitätsklinikum-ELEKTRO";"UNI-Elektro";"stationbased";"Homburg / Saar";"Deutschland";"49,309344030436290";"7,345561915344206";"Nein";"Nein";"Nein";"Nein";"Ja";"Flinkster (Endkd.)";"DB Fuhrpark"
"403197";"Station";"Hauptbahnhof-ELEKTRO";"HBF-Elektro";"stationbased";"Saarlouis";"Deutschland";"49,326968288468706";"6,748888169311499";"Nein";"Nein";"Nein";"Nein";"Nein";"Flinkster (Endkd.)";"DB Fuhrpark"
"403198";"Station";"ZOB Kleiner Markt-ELEKTRO";"ZOB-Elektro";"stationbased";"Saarlouis";"Deutschland";"49,313659079651190";"6,753995626983624";"Nein";"Nein";"Nein";"Nein";"Nein";"Flinkster (Endkd.)";"DB Fuhrpark"
"403199";"Station";"Heusweiler Markt-ELEKTRO";"HM-Elektro";"stationbased";"Heusweiler";"Deutschland";"49,335959141717310";"6,929197626983637";"Nein";"Nein";"Nein";"Nein";"Nein";"Flinkster (Endkd.)";"DB Fuhrpark"
"403200";"Station";"Bahnhof-ELEKTRO";"BF-Elektro";"stationbased";"Ottweiler";"Deutschland";"49,403154073602170";"7,165940169311511";"Nein";"Nein";"Nein";"Nein";"Nein";"Flinkster (Endkd.)";"DB Fuhrpark"
"403225";"Station";"Bahnhof Bietigheim-Bissingen 2";"BF-2";"stationbased";"Bietigheim-Bissingen";"Deutschland";"48,947589875584250";"9,138253927230835";"Nein";"Nein";"Nein";"Nein";"Ja";"Flinkster (Endkd.)";"DB Fuhrpark"
"403231";"Station";"Rathaus Zepernick";"ZEP";"stationbased";"Panketal";"Deutschland";"52,659993306801350";"13,532826748558023";"Nein";"Nein";"Ja";"Nein";"Nein";"Flinkster (Endkd.)";"DB Fuhrpark"
"403237";"Station";"Mainzer Landstr. 187a (LKW)";"DB MLL";"stationbased";"Frankfurt am Main";"Deutschland";"50,103999878324270";"8,650004564837673";"Nein";"Nein";"Nein";"Nein";"Nein";"Flinkster (Endkd.)";"DB Fuhrpark"
"403241";"Station";"Klosterstraße";"KLOSTER";"stationbased";"Berlin";"Deutschland";"52,517675064586484";"13,412365379013067";"Nein";"Nein";"Nein";"Nein";"Nein";"Flinkster (Endkd.)";"DB Fuhrpark"
"403304";"Station";"Hohe Straße (Parkhaus)";"HOH";"stationbased";"Köln";"Deutschland";"50,938842901931174";"6,957134915344227";"Nein";"Nein";"Nein";"Nein";"Nein";"Flinkster (Endkd.)";"DB Fuhrpark"
"403334";"Station";"Hbf Krefeld";"Hbf Krefeld";"stationbased";"Krefeld";"Deutschland";"51,326562000000000";"6,571258000000000";"Nein";"Nein";"Nein";"Nein";"Ja";"Flinkster (Endkd.)";"DB Fuhrpark"
"403352";"Station";"Wilhelmstraße-ELEKTRO";"WIL-ELEKTRO";"stationbased";"Ludwigsburg";"Deutschland";"48,895863980925490";"9,191786862600338";"Nein";"Nein";"Nein";"Nein";"Ja";"Flinkster (Endkd.)";"DB Fuhrpark"
"403370";"Station";"Hbf Hildesheim";"Hbf Hildesheim";"stationbased";"Hildesheim";"Deutschland";"52,160606264053506";"9,952132701873780";"Nein";"Nein";"Nein";"Nein";"Ja";"Flinkster (Endkd.)";"DB Fuhrpark"
"403372";"Station";"Stralauer Allee";"STRALAUER";"stationbased";"Berlin";"Deutschland";"52,501000034885166";"13,452377915382385";"Nein";"Nein";"Nein";"Nein";"Nein";"Flinkster (Endkd.)";"DB Fuhrpark"
"403387";"Station";"Fachhochschule-ELEKTRO";"FH-ELEKTRO";"stationbased";"Erfurt";"Deutschland";"50,984587724110220";"11,043996959924698";"Nein";"Nein";"Nein";"Nein";"Nein";"Flinkster (Endkd.)";"DB Fuhrpark"
"403388";"Station";"Ostendzentrum (Landhausstraße)";"OEZ";"stationbased";"Stuttgart";"Deutschland";"48,784593538961744";"9,209536314010620";"Nein";"Nein";"Nein";"Nein";"Nein";"Flinkster (Endkd.)";"DB Fuhrpark"
"403391";"Station";"Hauptbahnhof";"HBF";"stationbased";"Mönchengladbach";"Deutschland";"51,197515718563420";"6,445922255516052";"Nein";"Nein";"Nein";"Nein";"Ja";"Flinkster (Endkd.)";"DB Fuhrpark"
"403399";"Station";"Hbf 2 Karlsruhe (Parkhaus P1)";"Hbf 2 Karlsruhe (Parkhaus P1)";"stationbased";"Karlsruhe";"Deutschland";"48,992414969316920";"8,402084112167358";"Nein";"Nein";"Nein";"Nein";"Ja";"Flinkster (Endkd.)";"DB Fuhrpark"
"404432";"Station";"Hauptbahnhof";"HBF-Elektro";"stationbased";"Garmisch-Partenkirchen";"Deutschland";"47,490960280494520";"11,095555722713470";"Nein";"Ja";"Nein";"Nein";"Nein";"Flinkster (Endkd.)";"DB Fuhrpark"
"404449";"Station";"Hbf Elektro Erfurt";"Hbf Elektro Erfurt";"stationbased";"Erfurt";"Deutschland";"50,973108839213204";"11,038322322467820";"Nein";"Nein";"Nein";"Nein";"Nein";"Flinkster (Endkd.)";"DB Fuhrpark"
"404450";"Station";"Hbf Elektro Weimar";"Hbf Elektro Weimar";"stationbased";"Weimar";"Deutschland";"50,990566900515795";"11,326589887835667";"Nein";"Nein";"Nein";"Nein";"Nein";"Flinkster (Endkd.)";"DB Fuhrpark"
"404451";"Station";"Hbf Elektro Eisenach";"Hbf Elektro Eisenach";"stationbased";"Eisenach";"Deutschland";"50,975971142270870";"10,331864398811376";"Nein";"Nein";"Nein";"Nein";"Nein";"Flinkster (Endkd.)";"DB Fuhrpark"
"404452";"Station";"Bhf Elektro Paradies Jena";"Bhf Elektro Paradies Jena";"stationbased";"Jena";"Deutschland";"50,925767776668650";"11,586321602113344";"Nein";"Nein";"Nein";"Nein";"Nein";"Flinkster (Endkd.)";"DB Fuhrpark"
"404477";"Station";"Hbf Troisdorf";"Hbf Troisdorf";"stationbased";"Troisdorf";"Deutschland";"50,814947841357050";"7,148592059638986";"Nein";"Nein";"Nein";"Nein";"Ja";"Flinkster (Endkd.)";"DB Fuhrpark"
"404488";"Station";"Troisdorf Bahnhof";"BH";"stationbased";"Troisdorf";"Deutschland";"50,814585304709610";"7,149717807769775";"Nein";"Nein";"Nein";"Nein";"Nein";"Flinkster (Endkd.)";"DB Fuhrpark"
"404514";"Station";"Hbf Mülheim / Ruhr";"Hbf Mülheim / Ruhr";"stationbased";"Mülheim / Ruhr";"Deutschland";"51,430091733534230";"6,885443866231071";"Nein";"Nein";"Nein";"Nein";"Nein";"Flinkster (Endkd.)";"DB Fuhrpark"
"404515";"Station";"DB Netz Granitzstraße";"DB GRANITZ";"stationbased";"Berlin";"Deutschland";"52,572307219169296";"13,428092822090093";"Nein";"Nein";"Nein";"Nein";"Ja";"Flinkster (Endkd.)";"DB Fuhrpark"
"404522";"Station";"NEU NEU Hbf Hannover (Augustenstraße)";"Hbf Hannover";"stationbased";"Hannover";"Deutschland";"52,375820558146310";"9,745192408518050";"Nein";"Nein";"Nein";"Nein";"Ja";"Flinkster (Endkd.)";"DB Fuhrpark"
"404524";"Station";"Hbf Fulda";"Hbf Fulda";"stationbased";"Fulda";"Deutschland";"50,553967253189300";"9,683824717649259";"Nein";"Nein";"Nein";"Nein";"Ja";"Flinkster (Endkd.)";"DB Fuhrpark"
"404571";"Station";"Bahnhof-ELEKTRO";"BF-Elektro";"stationbased";"Losheim am See";"Deutschland";"49,506154000000000";"6,745366000000000";"Nein";"Nein";"Nein";"Nein";"Nein";"Flinkster (Endkd.)";"DB Fuhrpark"
"404661";"Station";"Friedrichshafen Stadtbahnhof";"FN-SBF";"stationbased";"Friedrichshafen";"Deutschland";"47,652181206605920";"9,473910927772522";"Nein";"Ja";"Nein";"Nein";"Nein";"Flinkster (Endkd.)";"DB Fuhrpark"
"404662";"Station";"Landratsamt Bodenseekreis (Elektro)";"LRA-FN (Elektro)";"stationbased";"Friedrichshafen";"Deutschland";"47,657323149811820";"9,453220367431640";"Nein";"Nein";"Nein";"Nein";"Nein";"Flinkster (Endkd.)";"DB Fuhrpark"
"404663";"Station";"Bahnhof Meckenbeuren (Elektro)";"BF-MEK";"stationbased";"Meckenbeuren";"Deutschland";"47,700223989539545";"9,559291005134582";"Nein";"Ja";"Nein";"Nein";"Nein";"Flinkster (Endkd.)";"DB Fuhrpark"
"404678";"Station";"RHS-Elektro";"RHS-ELEKTRO";"stationbased";"Kleinblittersdorf";"Deutschland";"49,156445000000000";"7,033782000000000";"Nein";"Nein";"Nein";"Nein";"Nein";"Flinkster (Endkd.)";"DB Fuhrpark"
"404679";"Station";"Bahnhof-ELEKTRO";"BF-ELEKTRO";"stationbased";"Mettlach";"Deutschland";"49,494910000000000";"6,598247000000000";"Nein";"Nein";"Nein";"Nein";"Nein";"Flinkster (Endkd.)";"DB Fuhrpark"
"404680";"Station";"Bahnhof-ELEKTRO";"BF-ELEKTRO";"stationbased";"St. Wendel";"Deutschland";"49,466625000000000";"7,165736000000000";"Nein";"Nein";"Nein";"Nein";"Nein";"Flinkster (Endkd.)";"DB Fuhrpark"
"404681";"Station";"Bahnhof-ELEKTRO";"BF-ELEKTRO";"stationbased";"St. Ingbert";"Deutschland";"49,274261000000000";"7,111394000000000";"Nein";"Nein";"Nein";"Nein";"Ja";"Flinkster (Endkd.)";"DB Fuhrpark"
"404682";"Station";"Poststraße-ELEKTRO";"PS-ELEKTRO";"stationbased";"St. Ingbert";"Deutschland";"49,278182000000000";"7,111764000000000";"Nein";"Nein";"Nein";"Nein";"Nein";"Flinkster (Endkd.)";"DB Fuhrpark"
"404694";"Station";"Hbf 3 Mannheim Victoria-Turm";"Hbf 3 Mannheim Victoria-Turm";"stationbased";"Mannheim";"Deutschland";"49,478275000000000";"8,468193000000000";"Nein";"Nein";"Nein";"Nein";"Ja";"Flinkster (Endkd.)";"DB Fuhrpark"
"404709";"Station";"Dillingen-ELEKTRO";"DIL-EL";"stationbased";"Dillingen";"Deutschland";"49,352753000000000";"6,723433000000000";"Nein";"Nein";"Nein";"Nein";"Nein";"Flinkster (Endkd.)";"DB Fuhrpark"
"404742";"Station";"Lungengasse-ELEKTRO";"LUN-Elektro";"stationbased";"Köln";"Deutschland";"50,934903198160754";"6,946642398834229";"Nein";"Nein";"Nein";"Nein";"Nein";"Flinkster (Endkd.)";"DB Fuhrpark"
"404743";"Station";"Longericher Str. ELEKTRO";"LON-Elektro";"stationbased";"Köln";"Deutschland";"50,969346244276615";"6,939234137535095";"Nein";"Nein";"Nein";"Nein";"Nein";"Flinkster (Endkd.)";"DB Fuhrpark"
"404747";"Station";"Landwehrplatz";"LWP";"stationbased";"Saarbrücken";"Deutschland";"49,233572497158900";"7,001396775463036";"Nein";"Nein";"Nein";"Nein";"Nein";"Flinkster (Endkd.)";"DB Fuhrpark"
"404782";"Station";"Mannheimer Str.";"DB MAN";"stationbased";"Frankfurt am Main";"Deutschland";"50,102365785852314";"8,655198812484741";"Nein";"Nein";"Nein";"Nein";"Ja";"Flinkster (Endkd.)";"DB Fuhrpark"
"404809";"Station";"Parkraumquartier Kluckstraße / Pohlstraße";"PRKLPO";"parkingarea";"Berlin";"Deutschland";"52,502142318865275";"13,361027240753174";"Nein";"Nein";"Nein";"Nein";"Nein";"Flinkster (Endkd.)";"DB Fuhrpark"
"404825";"Station";"Marienplatz-ELEKTRO";"MAR-Elektro";"stationbased";"Garmisch-Partenkirchen";"Deutschland";"47,492161000000000";"11,086102000000000";"Nein";"Nein";"Nein";"Nein";"Nein";"Flinkster (Endkd.)";"DB Fuhrpark"
"404826";"Station";"Rathaus-ELEKTRO";"RAT-Elektro";"stationbased";"Garmisch-Partenkirchen";"Deutschland";"47,493786000000000";"11,104506000000000";"Nein";"Nein";"Nein";"Nein";"Nein";"Flinkster (Endkd.)";"DB Fuhrpark"
"404841";"Station";"Zentraler Ominbusbahnhof ELEKTRO";"ZOB-Elektro";"stationbased";"Wadern";"Deutschland";"49,538647000000000";"6,892512000000000";"Nein";"Nein";"Nein";"Nein";"Nein";"Flinkster (Endkd.)";"DB Fuhrpark"
"404842";"Station";"Parkraumquartier Schumannstraße";"PR SCHUMANN";"parkingarea";"Berlin";"Deutschland";"52,523767614387130";"13,380446434020996";"Nein";"Nein";"Nein";"Nein";"Nein";"Flinkster (Endkd.)";"DB Fuhrpark"
"404932";"Station";"Strohberg";"STB";"stationbased";"Stuttgart";"Deutschland";"48,761960000000000";"9,172808000000000";"Nein";"Nein";"Nein";"Nein";"Nein";"Flinkster (Endkd.)";"DB Fuhrpark"
"404944";"Station";"DB HOLM-Elektro";"DB HOLM";"stationbased";"Frankfurt am Main";"Deutschland";"50,056325469592120";"8,593395646835347";"Nein";"Nein";"Nein";"Nein";"Nein";"Flinkster (Endkd.)";"DB Fuhrpark"
"404993";"Station";"Bahnhof-ELEKTRO";"BF-Elektro";"stationbased";"Ludwigsburg";"Deutschland";"48,891686340112270";"9,183796355819708";"Nein";"Nein";"Nein";"Nein";"Nein";"Flinkster (Endkd.)";"DB Fuhrpark"
"405028";"Station";"Parkraumquartier Pflügerstraße";"PR PFLÜGER";"parkingarea";"Berlin";"Deutschland";"52,491320869644355";"13,425619253967284";"Nein";"Nein";"Nein";"Nein";"Ja";"Flinkster (Endkd.)";"DB Fuhrpark"
"405037";"Station";"Salem";"SAL";"stationbased";"Salem";"Deutschland";"47,757982000000000";"9,296038000000000";"Nein";"Nein";"Nein";"Nein";"Nein";"Flinkster (Endkd.)";"DB Fuhrpark"
"405090";"Station";"Charlottenstraße";"CHARLOTTE (Elektro)";"stationbased";"Friedrichshafen";"Deutschland";"47,653959860435120";"9,476006831828272";"Nein";"Nein";"Nein";"Nein";"Nein";"Flinkster (Endkd.)";"DB Fuhrpark"
"405100";"Station";"Parkraumquartier Barbarossaplatz";"PR BARBAROSSA";"parkingarea";"Berlin";"Deutschland";"52,492109583904910";"13,349246978759765";"Nein";"Nein";"Nein";"Nein";"Ja";"Flinkster (Endkd.)";"DB Fuhrpark"
"405103";"Station";"Le-Puy";"LEPUY";"stationbased";"Meschede";"Deutschland";"51,348938596683620";"8,280415944464039";"Nein";"Nein";"Nein";"Nein";"Ja";"Flinkster (Endkd.)";"DB Fuhrpark"
"405109";"Station";"Lagerstraße";"LAGER";"stationbased";"Meschede";"Deutschland";"51,350082354312370";"8,279157504512114";"Nein";"Nein";"Nein";"Nein";"Ja";"Flinkster (Endkd.)";"DB Fuhrpark"
"405157";"Station";"Südkreuz 1 ELEKTRO";"SK 1 ELEKTRO";"stationbased";"Berlin";"Deutschland";"52,475560531814890";"13,364023268222809";"Nein";"Ja";"Ja";"Nein";"Ja";"Flinkster (Endkd.)";"DB Fuhrpark"
"405191";"Station";"Klinikum Garmisch-Partenkirchen";"KLINIK-ELEKTRO";"stationbased";"Garmisch-Partenkirchen";"Deutschland";"47,484169000000000";"11,127933000000000";"Nein";"Nein";"Nein";"Nein";"Nein";"Flinkster (Endkd.)";"DB Fuhrpark"
"405192";"Station";"Hbf Bayreuth";"Hbf Bayreuth";"stationbased";"Bayreuth";"Deutschland";"49,948747497442140";"11,579877734223146";"Nein";"Nein";"Nein";"Nein";"Ja";"Flinkster (Endkd.)";"DB Fuhrpark"
"405210";"Station";"Europaallee";"EURO-ELEKTRO";"stationbased";"Saarbrücken";"Deutschland";"6,990682000000000";"49,242819000000000";"Nein";"Nein";"Nein";"Nein";"Nein";"Flinkster (Endkd.)";"DB Fuhrpark"
"405211";"Station";"Heinrich-Barth-Straße";"HEIN-ELEKTRO";"stationbased";"Saarbrücken";"Deutschland";"6,955171000000000";"49,239184000000000";"Nein";"Nein";"Nein";"Nein";"Nein";"Flinkster (Endkd.)";"DB Fuhrpark"
"405212";"Station";"Hohenzollernstraße ";"HOHENZOLL-ELEKTRO";"stationbased";"Saarbrücken";"Deutschland";"6,978286000000000";"49,234739000000000";"Nein";"Nein";"Nein";"Nein";"Nein";"Flinkster (Endkd.)";"DB Fuhrpark"
"405213";"Station";"Halbergstraße";"HALBERG_ELEKTRO";"stationbased";"Saarbrücken";"Deutschland";"7,021207000000000";"49,227432000000000";"Nein";"Nein";"Nein";"Nein";"Nein";"Flinkster (Endkd.)";"DB Fuhrpark"
"405214";"Station";"Saarbrücker Straße";"SAARB-ELEKTRO";"stationbased";"Saarbrücken";"Deutschland";"49,216388254228185";"7,029622213630660";"Nein";"Nein";"Nein";"Nein";"Nein";"Flinkster (Endkd.)";"DB Fuhrpark"
"405219";"Station";"Gemeinde Eriskirch am Bodensee";"ERISKIRCH";"stationbased";"Eriskirch";"Deutschland";"47,625539400000000";"9,540414699999928";"Nein";"Nein";"Nein";"Nein";"Nein";"Flinkster (Endkd.)";"DB Fuhrpark"
"405227";"Station";"Gemeindeverwaltung Deggenhausertal";"Deggen";"stationbased";"Deggenhausertal";"Deutschland";"47,782527100000000";"9,391250300000024";"Nein";"Nein";"Nein";"Nein";"Nein";"Flinkster (Endkd.)";"DB Fuhrpark"
"405230";"Station";"Parkraumquartier Westend";"PR WESTEND";"parkingarea";"Berlin";"Deutschland";"52,515803012883595";"13,291053771972656";"Nein";"Nein";"Nein";"Nein";"Ja";"Flinkster (Endkd.)";"DB Fuhrpark"
"405234";"Station";"Regio-Center BRS";"LAER";"stationbased";"Meschede";"Deutschland";"51,347660413974050";"8,257040999999958";"Nein";"Nein";"Nein";"Nein";"Ja";"Flinkster (Endkd.)";"DB Fuhrpark"
"405239";"Station";"Parkraumquartier Sonnenallee";"PR SONNE";"parkingarea";"Berlin";"Deutschland";"52,473727686059760";"13,453634066162067";"Nein";"Nein";"Nein";"Nein";"Ja";"Flinkster (Endkd.)";"DB Fuhrpark"
"405240";"Station";"Parkraumquartier Hermannstraße";"PR HERMANN";"parkingarea";"Berlin";"Deutschland";"52,469820762817584";"13,433140145789366";"Nein";"Nein";"Nein";"Nein";"Ja";"Flinkster (Endkd.)";"DB Fuhrpark"
"405241";"Station";"Parkraumquartier Bundesplatz";"PR BUNDES";"parkingarea";"Berlin";"Deutschland";"52,475043452309260";"13,326416015625000";"Nein";"Nein";"Nein";"Nein";"Ja";"Flinkster (Endkd.)";"DB Fuhrpark"
"405242";"Station";"Parkraumquartier Halensee";"PR HALENSEE";"parkingarea";"Berlin";"Deutschland";"52,496107276089340";"13,293199539184570";"Nein";"Nein";"Nein";"Nein";"Ja";"Flinkster (Endkd.)";"DB Fuhrpark"
"405243";"Station";"Parkraumquartier Westhafen";"PR WEST";"parkingarea";"Berlin";"Deutschland";"52,533062175553850";"13,347101211547851";"Nein";"Nein";"Nein";"Nein";"Ja";"Flinkster (Endkd.)";"DB Fuhrpark"
"405255";"Station";"Hizlerstraße";"HIZ-ELEKTRO";"stationbased";"Überlingen";"Deutschland";"47,769350268633750";"9,163647498789942";"Nein";"Nein";"Nein";"Nein";"Nein";"Flinkster (Endkd.)";"DB Fuhrpark"
"405417";"Station";"Parkraumquartier Bellevue";"PR BEL";"parkingarea";"Berlin";"Deutschland";"52,521150595753000";"13,345584430807000";"Nein";"Nein";"Nein";"Nein";"Ja";"Flinkster (Endkd.)";"DB Fuhrpark"
"405418";"Station";"Naturschutzzentrum";"NATUR";"stationbased";"Eriskirch";"Deutschland";"47,628529311278086";"9,526864180056691";"Nein";"Nein";"Nein";"Nein";"Nein";"Flinkster (Endkd.)";"DB Fuhrpark"
"405456";"Station";"Parkraumquartier Kottbusser Tor";"PR KOTT";"parkingarea";"Berlin";"Deutschland";"52,496838840547000";"13,426065444946289";"Nein";"Nein";"Nein";"Nein";"Ja";"Flinkster (Endkd.)";"DB Fuhrpark"
"405464";"Station";"Parkraumquartier Bayerischer Platz";"PR BP";"parkingarea";"Berlin";"Deutschland";"52,488764830185910";"13,338861465454102";"Nein";"Nein";"Nein";"Nein";"Ja";"Flinkster (Endkd.)";"DB Fuhrpark"
"405495";"Station";"Flughafen Friedrichshafen";"AIRPORT";"stationbased";"Friedrichshafen";"Deutschland";"47,672627862584235";"9,523256555947114";"Nein";"Nein";"Nein";"Nein";"Nein";"Flinkster (Endkd.)";"DB Fuhrpark"
"405527";"Station";"Ortsverwaltung Ailingen";"EM_Ailingen";"stationbased";"Friedrichshafen";"Deutschland";"47,688524807856105";"9,490326225713943";"Nein";"Nein";"Nein";"Nein";"Nein";"Flinkster (Endkd.)";"DB Fuhrpark"
"405577";"Station";"FN.ESSO Hinterer Hafen";"EM_ESSO";"stationbased";"Friedrichshafen";"Deutschland";"47,652566045586030";"9,484617141247554";"Nein";"Nein";"Nein";"Nein";"Nein";"Flinkster (Endkd.)";"DB Fuhrpark"
"405578";"Station";"Campus Carsharing";"CampusCS";"freefloating";"Friedrichshafen";"Deutschland";"47,665659433590484";"9,445121125134278";"Nein";"Nein";"Nein";"Nein";"Nein";"Flinkster (Endkd.)";"DB Fuhrpark"
"405588";"Station";"EMMA_Bahnhof Stadtmitte";"EM_Bf.Mitte";"stationbased";"Überlingen";"Deutschland";"47,769094471614544";"9,162370204958279";"Nein";"Nein";"Nein";"Nein";"Ja";"Flinkster (Endkd.)";"DB Fuhrpark"
"405594";"Station";"Bahnhof";"EM_Markdorf";"stationbased";"Markdorf";"Deutschland";"47,716759451392760";"9,389079093671171";"Nein";"Nein";"Nein";"Nein";"Nein";"Flinkster (Endkd.)";"DB Fuhrpark"
"405619";"Station";"Kreissparkasse";"KSK GAP";"stationbased";"Garmisch-Partenkirchen";"Deutschland";"47,493903513082840";"11,097154319286346";"Nein";"Nein";"Nein";"Nein";"Nein";"Flinkster (Endkd.)";"DB Fuhrpark"
"405623";"Station";"Hauptbahnhof A 29 EUR FC-Tarif";"Hbf A FC Elektro Berlin";"stationbased";"Berlin";"Deutschland";"52,524247863184920";"13,366210644180228";"Nein";"Nein";"Nein";"Nein";"Ja";"Flinkster (Endkd.)";"DB Fuhrpark"
"405624";"Station";"FC-Südkreuz > 29 EUR Tarif";"FC-SK";"stationbased";"Berlin";"Deutschland";"52,475739425205470";"13,363921344280243";"Nein";"Nein";"Nein";"Nein";"Nein";"Flinkster (Endkd.)";"DB Fuhrpark"
"405664";"Station";"Kleyerstraße";"DB KLE";"stationbased";"Frankfurt am Main";"Deutschland";"50,097694000000000";"8,632796000000000";"Nein";"Nein";"Nein";"Nein";"Ja";"Flinkster (Endkd.)";"DB Fuhrpark"
"405747";"Station";"Parkraumquartier Beusselstraße";"PR BEUSSEL";"parkingarea";"Berlin";"Deutschland";"52,530122837107000";"13,327581072954000";"Nein";"Nein";"Nein";"Nein";"Ja";"Flinkster (Endkd.)";"DB Fuhrpark"
"405748";"Station";"Parkraumquartier Ostkreuz";"PR OSTKREUZ";"parkingarea";"Berlin";"Deutschland";"52,504896336801000";"13,476559298385000";"Nein";"Nein";"Nein";"Nein";"Ja";"Flinkster (Endkd.)";"DB Fuhrpark"
"405749";"Station";"Parkraumquartier Innsbrucker Platz";"PR INNS";"parkingarea";"Berlin";"Deutschland";"52,480755043847000";"13,343584309725000";"Nein";"Nein";"Nein";"Nein";"Ja";"Flinkster (Endkd.)";"DB Fuhrpark"
"405801";"Station";"Bühringstraße";"BÜH";"parkingarea";"Berlin";"Deutschland";"52,558736006515100";"13,437985181808472";"Nein";"Nein";"Nein";"Nein";"Ja";"Flinkster (Endkd.)";"DB Fuhrpark"
"405802";"Station";"Pankower Straße";"PANKS";"stationbased";"Berlin";"Deutschland";"52,584240627485386";"13,427959084510803";"Nein";"Nein";"Nein";"Nein";"Ja";"Flinkster (Endkd.)";"DB Fuhrpark"
"405814";"Station";"PR Zillestraße";"PR Zille";"parkingarea";"Berlin";"Deutschland";"52,515761038012000";"13,305445601529000";"Nein";"Nein";"Nein";"Nein";"Nein";"Flinkster (Endkd.)";"DB Fuhrpark"
"405815";"Station";"Parkraumquartier Alt Litzow";"PR ALT LITZ";"parkingarea";"Berlin";"Deutschland";"52,519830665800000";"13,306859236331000";"Nein";"Nein";"Nein";"Nein";"Nein";"Flinkster (Endkd.)";"DB Fuhrpark"
"405817";"Station";"Parkraumquartier Am Volkspark";"PR VOLKS";"parkingarea";"Berlin";"Deutschland";"52,479852955674154";"13,325386047363281";"Nein";"Nein";"Nein";"Nein";"Ja";"Flinkster (Endkd.)";"DB Fuhrpark"
"405878";"Station";"Parkraumquartier Hauptbahnhof";"PRBF";"parkingarea";"München";"Deutschland";"48,137880031502576";"11,560072915344222";"Nein";"Nein";"Nein";"Nein";"Ja";"Flinkster (Endkd.)";"DB Fuhrpark"
"405933";"Station";"Parkgarage Uni-Mensa Schloss";"HBF 3";"stationbased";"Mannheim";"Deutschland";"49,484971180000000";"8,459500510000000";"Nein";"Nein";"Nein";"Nein";"Nein";"Flinkster (Endkd.)";"DB Fuhrpark"
"405960";"Station";"Krefeld Werk";"KRW";"stationbased";"Krefeld";"Deutschland";"51,331143367889624";"6,618781399229192";"Nein";"Nein";"Nein";"Nein";"Ja";"Flinkster (Endkd.)";"DB Fuhrpark"
"405976";"Station";"Hbf Köln";"Hbf Köln";"stationbased";"Köln";"Deutschland";"50,942434725473774";"6,960589885711670";"Nein";"Nein";"Nein";"Nein";"Ja";"Flinkster (Endkd.)";"DB Fuhrpark"
"406015";"Station";"Äußere Hordorfer Straße";"E-HOR";"stationbased";"Halle";"Deutschland";"51,496137485108760";"11,985336880950967";"Nein";"Nein";"Nein";"Nein";"Nein";"Flinkster (Endkd.)";"DB Fuhrpark"
"406016";"Station";"Campus Süd";"E-CAMP";"stationbased";"Halle";"Deutschland";"51,494399549350945";"11,937548071146011";"Nein";"Nein";"Nein";"Nein";"Nein";"Flinkster (Endkd.)";"DB Fuhrpark"
"406017";"Station";"P+R Kröllwitz";"E-Kröll";"stationbased";"Halle";"Deutschland";"51,508010525682224";"11,926894336938858";"Nein";"Nein";"Nein";"Nein";"Nein";"Flinkster (Endkd.)";"DB Fuhrpark"
"406018";"Station";"P&R-Platz Büschdorf";"E-Büsch";"stationbased";"Halle";"Deutschland";"51,479010279826790";"12,034749031944670";"Nein";"Nein";"Nein";"Nein";"Nein";"Flinkster (Endkd.)";"DB Fuhrpark"
"406067";"Station";"Hbf Garmisch-Partenkirchen";"Hbf Garmisch-Partenkirchen";"stationbased";"Garmisch-Partenkirchen";"Deutschland";"47,491671929988170";"11,097933069763712";"Nein";"Nein";"Nein";"Nein";"Ja";"Flinkster (Endkd.)";"DB Fuhrpark"
"406074";"Station";"Bornknechtstraße";"E-BORN";"stationbased";"Halle";"Deutschland";"51,480643044896816";"11,964672298117080";"Nein";"Nein";"Nein";"Nein";"Nein";"Flinkster (Endkd.)";"DB Fuhrpark"
"406137";"Station";"DKB Herzbergstraße";"DKB-Herzberg";"stationbased";"Berlin";"Deutschland";"52,523323723775140";"13,383064270019531";"Nein";"Nein";"Nein";"Nein";"Nein";"Flinkster (Endkd.)";"DB Fuhrpark"
"406178";"Station";"INTEROP";"INTEROP";"stationbased";"DB Ein-/Aussteuerung";"Deutschland";"51,151786101430370";"10,019531250000000";"Nein";"Nein";"Nein";"Nein";"Ja";"Flinkster (Endkd.)";"DB Fuhrpark"
"406229";"Station";"Parkraumquartier Brunnenviertel";"PR BRUNNEN";"parkingarea";"Berlin";"Deutschland";"52,544945492621000";"13,394460172011000";"Nein";"Nein";"Nein";"Nein";"Ja";"Flinkster (Endkd.)";"DB Fuhrpark"
"406256";"Station";"Parkraumquartier Charitestraße";"PR CH";"parkingarea";"Berlin";"Deutschland";"52,522984274986435";"13,379094600677490";"Nein";"Nein";"Nein";"Nein";"Ja";"Flinkster (Endkd.)";"DB Fuhrpark"
"406277";"Station";"Hbf Gelsenkirchen";"Hbf Gelsenkirchen";"stationbased";"Gelsenkirchen";"Deutschland";"51,504366558180010";"7,103455066680908";"Nein";"Nein";"Nein";"Nein";"Ja";"Flinkster (Endkd.)";"DB Fuhrpark"
"406327";"Station";"Parkraumquartier Bergmannkiez";"PR BERG";"parkingarea";"Berlin";"Deutschland";"52,491118614672000";"13,389560455366000";"Nein";"Nein";"Nein";"Nein";"Ja";"Flinkster (Endkd.)";"DB Fuhrpark"
"406429";"Station";"Hbf 4 Mannheim";"Hbf 4 Mannheim Parkhaus P2";"stationbased";"Mannheim";"Deutschland";"49,478551380354190";"8,472260516809910";"Nein";"Nein";"Nein";"Nein";"Ja";"Flinkster (Endkd.)";"DB Fuhrpark"
